{"type":"FeatureCollection","meta":{"generated_at":"2026-09-22T11:26:16.332Z","sources":["OpenStreetMap via Overpass API"],"license":"ODbL 1.0 — © OpenStreetMap contributors"},"features":[{"type":"Feature","id":"relation/140292","properties":{"name":"Омская область","kind":"oblast"},"geometry":{"type":"MultiPolygon","coordinates":[[[[70.7024,55.9531],[70.7603,55.9295],[70.7954,55.9296],[70.7972,55.9544],[70.7446,55.9596],[70.7024,55.9531]]],[[[70.7396,55.9797],[70.8056,55.9846],[70.8209,56.0132],[70.8222,56.046],[70.7549,56.047],[70.7547,56.0328],[70.7237,56.0136],[70.7396,55.9797]]],[[[70.7612,56.379],[70.7824,56.362],[70.806,56.3632],[70.8199,56.3901],[70.7831,56.395],[70.7718,56.3809],[70.7599,56.3878],[70.7555,56.3823],[70.7612,56.379]]],[[[75.5175,54.8992],[75.5182,54.9133],[75.4432,54.9144],[75.4483,54.9045],[75.4337,54.9026],[75.3429,54.9039],[75.3308,54.9136],[75.3801,54.9914],[75.4074,54.9915],[75.3706,55.0684],[75.3144,55.067],[75.3145,55.1269],[75.2752,55.1222],[75.2604,55.1297],[75.2533,55.1512],[75.2938,55.1711],[75.2689,55.1958],[75.2698,55.213],[75.2804,55.2243],[75.2755,55.23],[75.2762,55.2405],[75.2291,55.2837],[75.2052,55.2851],[75.1995,55.3224],[75.1703,55.3275],[75.1776,55.3524],[75.0915,55.3766],[75.1986,55.4257],[75.1623,55.4471],[75.2359,55.4756],[75.3217,55.498],[75.3124,55.538],[75.2915,55.5497],[75.2865,55.5574],[75.2722,55.548],[75.2208,55.5406],[75.1958,55.5525],[75.1854,55.566],[75.1408,55.5839],[75.1539,55.5947],[75.1712,55.5987],[75.1953,55.6191],[75.2549,55.6257],[75.2454,55.6383],[75.1155,55.686],[75.1182,55.6917],[75.1129,55.6994],[75.1295,55.7099],[75.088,55.7268],[75.1044,55.7564],[75.2302,55.7309],[75.3694,55.7407],[75.3673,55.8053],[75.3467,55.8001],[75.3433,55.8099],[75.3039,55.832],[75.2651,55.8334],[75.2624,55.8441],[75.3236,55.8976],[75.4162,55.934],[75.5143,55.9967],[75.5314,56.0088],[75.5282,56.029],[75.5846,56.0311],[75.5944,56.039],[75.6534,56.0369],[75.6779,56.0556],[75.6813,56.073],[75.7358,56.0998],[75.7313,56.1103],[75.9595,56.1151],[75.9797,56.1254],[76.014,56.1637],[76.0429,56.1506],[76.0721,56.1471],[76.1209,56.1549],[76.1386,56.1214],[76.1626,56.1319],[76.2264,56.1452],[76.3027,56.1556],[76.3036,56.1813],[76.2336,56.216],[76.1725,56.2819],[76.1283,56.2687],[76.1183,56.2594],[76.11,56.264],[76.1259,56.271],[76.1035,56.2942],[76.0781,56.2978],[76.099,56.301],[76.0838,56.3255],[76.084,56.4088],[76.0647,56.4192],[76.0945,56.4292],[76.1225,56.4226],[76.1231,56.4287],[76.1087,56.4456],[76.0915,56.4405],[76.0853,56.4429],[76.0905,56.4479],[76.0788,56.4477],[76.0809,56.4567],[76.0875,56.4579],[76.0848,56.4596],[76.0682,56.4552],[76.0468,56.4619],[76.0297,56.4572],[76.0212,56.4611],[76.0195,56.4553],[76.0286,56.4522],[76.0247,56.4479],[76.016,56.4538],[76.0212,56.4459],[76.0181,56.4446],[76.0076,56.4467],[76.0116,56.4517],[76.0031,56.4536],[76.0126,56.4586],[76.0009,56.4626],[75.9948,56.456],[75.9917,56.4648],[75.9832,56.4595],[75.9826,56.4656],[75.9593,56.451],[75.9661,56.4449],[75.9543,56.4466],[75.9485,56.4384],[75.9392,56.4436],[75.9492,56.4459],[75.9454,56.4477],[75.9269,56.4464],[75.9133,56.4411],[75.913,56.432],[75.9018,56.4342],[75.8995,56.4317],[75.9129,56.4268],[75.899,56.4141],[75.8911,56.4216],[75.8819,56.4205],[75.8721,56.4112],[75.8669,56.4147],[75.8429,56.4094],[75.8324,56.4146],[75.8307,56.4235],[75.8428,56.4373],[75.8423,56.4446],[75.8329,56.4485],[75.8467,56.4575],[75.8345,56.4803],[75.8545,56.4981],[75.9585,56.507],[76.019,56.5708],[76.0359,56.6083],[76.0892,56.6035],[76.1072,56.611],[76.1503,56.6167],[76.1507,56.64],[76.1361,56.6619],[76.2891,56.6971],[76.2643,56.8131],[76.2618,56.8186],[76.2413,56.8263],[76.2556,56.8365],[76.2554,56.8565],[76.2637,56.8874],[76.2005,56.9469],[76.1262,57.164],[76.0947,57.2353],[76.0782,57.2566],[75.9654,57.3937],[75.8483,57.3858],[75.7041,57.625],[75.55,57.6252],[75.5761,57.8788],[75.5658,57.9346],[75.303,58.0268],[75.0715,58.1168],[75.2425,58.2026],[75.0567,58.3392],[75.255,58.4174],[75.3768,58.4541],[75.1094,58.5757],[74.9502,58.4928],[74.9564,58.4831],[74.9506,58.4722],[74.9147,58.4593],[74.9113,58.454],[74.9171,58.4461],[74.9122,58.4282],[74.8037,58.409],[74.6721,58.3562],[74.6783,58.3529],[74.6601,58.3444],[74.6628,58.3426],[74.6584,58.3367],[74.6628,58.332],[74.6359,58.3255],[74.6452,58.3212],[74.6403,58.3131],[74.6273,58.3098],[74.6403,58.3102],[74.6374,58.3045],[74.6414,58.3004],[74.6259,58.2868],[74.5854,58.2813],[74.457,58.2425],[74.2196,58.1363],[73.5006,58.1435],[73.1283,58.1553],[72.9519,58.0718],[72.9465,58.0678],[72.9506,58.0614],[72.9307,58.0556],[72.9265,58.0456],[72.9079,58.0391],[72.9068,58.0327],[72.8857,58.0183],[72.8846,58.0108],[72.8682,58.0016],[72.8277,58.0028],[72.8104,57.9968],[72.1679,58.0147],[72.1046,58.0535],[72.0997,58.0674],[72.0916,58.0744],[72.0902,58.086],[72.0426,58.1046],[71.9902,58.1158],[71.5425,58.0748],[71.5198,58.0772],[71.4997,58.0707],[71.4904,58.0742],[71.4541,58.0627],[71.4032,58.0642],[71.389,58.078],[71.3386,58.0746],[71.3268,58.0778],[71.3157,58.0676],[71.2656,58.0534],[71.215,58.0536],[71.2089,58.0667],[71.2137,58.0683],[71.2069,58.0754],[71.2308,58.0873],[71.2336,58.093],[71.2066,58.1106],[71.2378,58.3279],[71.2582,58.3399],[71.2752,58.3434],[71.281,58.3507],[71.2937,58.3521],[71.2945,58.3661],[71.2999,58.364],[71.2978,58.3689],[71.3021,58.3735],[71.3155,58.3745],[71.3089,58.3767],[71.3114,58.3831],[71.3008,58.3844],[71.305,58.3903],[71.2952,58.3901],[71.2904,58.3945],[71.2939,58.3992],[71.2838,58.4071],[71.2406,58.4095],[71.2325,58.4131],[71.2332,58.4183],[71.2179,58.4246],[71.195,58.4197],[71.1764,58.4231],[71.1701,58.437],[71.1625,58.4339],[71.1631,58.4421],[71.1463,58.4389],[71.1442,58.4462],[71.1247,58.4386],[71.1257,58.4335],[71.1113,58.4342],[71.1121,58.4311],[71.1006,58.4288],[71.0979,58.4363],[71.1041,58.438],[71.0917,58.4398],[71.1017,58.4458],[71.0989,58.448],[71.1054,58.4464],[71.1037,58.4524],[71.1208,58.4539],[71.1147,58.4557],[71.1201,58.4581],[71.1096,58.4691],[71.1153,58.4766],[71.1048,58.471],[71.0969,58.4764],[71.0995,58.4781],[71.0893,58.4763],[71.0927,58.4821],[71.0811,58.48],[71.0791,58.4897],[71.0837,58.4929],[71.0773,58.4931],[71.0829,58.4951],[71.0744,58.5047],[71.0695,58.4976],[71.0656,58.5025],[71.0686,58.5039],[71.0539,58.5052],[71.0531,58.5113],[71.0457,58.5063],[71.042,58.511],[71.0376,58.5061],[71.0383,58.511],[71.0343,58.5116],[71.0196,58.5031],[70.9767,58.5001],[70.9713,58.5061],[70.9618,58.5044],[70.9658,58.5135],[70.9509,58.5107],[70.9397,58.5145],[70.9439,58.5173],[70.9389,58.5212],[70.9481,58.5255],[70.9464,58.5285],[70.9307,58.5229],[70.9207,58.5246],[70.9284,58.5292],[70.902,58.5265],[70.8985,58.5308],[70.8702,58.5326],[70.8675,58.5268],[70.8548,58.5298],[70.8462,58.5217],[70.4604,57.9942],[70.4304,57.9522],[70.4398,57.9456],[70.4398,57.9388],[70.4259,57.9378],[70.4105,57.9472],[70.3753,57.9378],[70.3682,57.9223],[70.3798,57.9158],[70.3584,57.9013],[70.3601,57.898],[70.3846,57.8874],[70.4044,57.9019],[70.4261,57.8937],[70.4034,57.8784],[70.4236,57.8744],[70.4259,57.8659],[70.4207,57.8454],[70.4304,57.8435],[70.3923,57.7825],[70.4755,57.7689],[70.478,57.7352],[70.5565,57.7198],[70.5989,57.5772],[70.624,57.5884],[70.6464,57.5883],[70.6753,57.5712],[70.683,57.5722],[70.6902,57.5538],[70.6857,57.5155],[70.6221,57.4957],[70.5876,57.477],[70.5783,57.458],[70.4182,57.4151],[70.3692,57.372],[70.3723,57.3294],[70.4588,57.2824],[70.5207,57.2866],[70.5307,57.2753],[70.5694,57.2723],[70.6065,57.2801],[70.6293,57.2343],[70.5875,57.2238],[70.5819,57.2057],[70.6186,57.2054],[70.6216,57.21],[70.6561,57.1987],[70.6665,57.2023],[70.6876,57.1999],[70.7018,57.2013],[70.7116,57.2125],[70.7336,57.212],[70.7185,57.2311],[70.7205,57.2342],[70.7538,57.2501],[70.7672,57.2643],[70.7786,57.2648],[70.7808,57.276],[70.7583,57.2849],[70.7362,57.2865],[70.7127,57.2993],[70.7331,57.3076],[70.7297,57.3139],[70.7341,57.3218],[70.7587,57.3176],[70.7749,57.3243],[70.7639,57.3413],[70.7744,57.3436],[70.7681,57.3541],[70.7868,57.365],[70.8156,57.3652],[70.8198,57.3744],[70.8328,57.3786],[70.8406,57.377],[70.8452,57.3647],[70.9238,57.3549],[70.945,57.3727],[70.9486,57.3837],[70.9797,57.3798],[70.9829,57.3866],[70.9966,57.3814],[71.0047,57.3778],[71.0036,57.3743],[70.9818,57.3678],[70.9779,57.3511],[71.0133,57.3456],[71.0187,57.3562],[71.065,57.3509],[71.0529,57.2936],[71.095,57.2874],[71.0895,57.2579],[71.0705,57.259],[71.0829,57.2427],[71.086,57.2358],[71.0823,57.2345],[71.1058,57.2175],[71.1156,57.2024],[71.186,57.1952],[71.2153,57.1711],[71.2294,57.1747],[71.2973,57.0852],[71.605,56.9329],[71.6384,56.881],[71.6773,56.7652],[71.6305,56.7553],[71.5988,56.7577],[71.5656,56.7529],[71.5814,56.7435],[71.5766,56.7113],[71.5537,56.6703],[71.449,56.6764],[71.4342,56.6822],[71.3819,56.6789],[71.3922,56.6476],[71.3699,56.6318],[71.2957,56.6381],[71.2638,56.6566],[71.2259,56.6446],[71.1205,56.653],[71.0758,56.6911],[71.0204,56.683],[71.0128,56.6452],[71.1133,56.6247],[71.0846,56.5242],[71.0126,56.489],[70.9841,56.4622],[70.9263,56.4545],[70.8974,56.4617],[70.8011,56.4513],[70.7355,56.4246],[70.7912,56.4165],[70.8109,56.4411],[70.8151,56.4405],[70.8406,56.4186],[70.8411,56.4094],[70.871,56.4033],[70.8771,56.3874],[70.9275,56.3792],[70.9118,56.3567],[70.9282,56.3171],[70.9395,56.3168],[70.9484,56.3048],[70.8519,56.3018],[70.7888,56.2712],[70.7322,56.2531],[70.7737,56.2124],[70.8156,56.2157],[70.8236,56.1954],[70.8062,56.1863],[70.8615,56.1404],[70.8791,56.1461],[70.9024,56.1123],[70.9016,56.0842],[70.9138,56.0857],[70.8987,56.0675],[70.8674,55.9622],[70.8085,55.9026],[70.5795,55.9103],[70.5879,55.9054],[70.4806,55.906],[70.4815,55.8698],[70.4738,55.8667],[70.472,55.8524],[70.5858,55.8229],[70.6026,55.8372],[70.6784,55.8423],[70.7571,55.8553],[70.8287,55.8346],[70.7782,55.8247],[70.7487,55.8255],[70.6981,55.8001],[70.6472,55.7997],[70.646,55.8111],[70.5611,55.8022],[70.5505,55.7917],[70.5894,55.772],[70.5419,55.7369],[70.5317,55.6944],[70.5635,55.6507],[70.6454,55.6248],[70.7101,55.6254],[70.754,55.6091],[70.757,55.5847],[70.7198,55.5599],[70.6734,55.4905],[70.6369,55.4985],[70.567,55.4939],[70.5366,55.4782],[70.4396,55.4075],[70.4565,55.3923],[70.4987,55.3308],[70.4866,55.2979],[70.4607,55.2855],[70.4754,55.2804],[70.4773,55.273],[70.6205,55.2533],[70.6954,55.2894],[70.8077,55.2925],[70.8222,55.2792],[70.7992,55.2714],[70.8804,55.1805],[70.9252,55.1671],[70.9225,55.1296],[71.0201,55.0856],[70.9931,55.0736],[70.9868,55.0519],[71.0033,55.0526],[71.0043,55.0122],[70.9877,55.0006],[71,54.9897],[70.9765,54.983],[71.0082,54.9704],[70.9931,54.927],[70.9554,54.8883],[70.9803,54.8758],[70.9743,54.8681],[70.9992,54.8542],[71.0193,54.852],[71.0262,54.828],[71.0111,54.8136],[71.0256,54.7996],[71.0299,54.7788],[71.0667,54.7479],[71.0718,54.7338],[71.0967,54.7117],[71.093,54.7053],[71.0967,54.6998],[71.2108,54.7004],[71.2101,54.6866],[71.2396,54.6863],[71.239,54.6683],[71.293,54.6678],[71.291,54.6064],[71.2142,54.6099],[71.1935,54.6003],[71.1675,54.5605],[71.1696,54.5488],[71.1731,54.5487],[71.1713,54.4612],[71.2022,54.4612],[71.2,54.4076],[71.2313,54.407],[71.2297,54.3544],[71.1987,54.3545],[71.1978,54.3329],[71.2043,54.3319],[71.1984,54.3116],[71.1093,54.3217],[71.1129,54.3352],[70.998,54.336],[70.9961,54.2752],[71.0732,54.2742],[71.0711,54.2058],[71.0609,54.2057],[71.0561,54.1913],[71.1115,54.1877],[71.1021,54.1666],[71.1368,54.1621],[71.1224,54.1296],[71.1785,54.0947],[71.2749,54.1477],[71.2956,54.1842],[71.3001,54.1851],[71.3868,54.1815],[71.3843,54.1675],[71.4904,54.1594],[71.4871,54.1012],[71.6099,54.1158],[71.6164,54.1],[71.6711,54.099],[71.6721,54.1105],[71.7203,54.1057],[71.7643,54.1471],[71.7275,54.1875],[71.752,54.2538],[71.8856,54.2312],[71.9333,54.2288],[71.9483,54.2434],[72.0735,54.1995],[72.0645,54.1837],[72.1156,54.1737],[72.1013,54.1476],[72.1846,54.1206],[72.2198,54.1829],[72.1354,54.2097],[72.0858,54.2195],[72.1176,54.2783],[72.133,54.2754],[72.1356,54.3052],[72.0953,54.3138],[72.0892,54.3273],[72.0765,54.3326],[72.0425,54.3273],[72.0525,54.3378],[72.034,54.3656],[72.192,54.3535],[72.1942,54.3577],[72.2797,54.3163],[72.3002,54.2937],[72.291,54.2497],[72.337,54.2463],[72.2991,54.1868],[72.3444,54.1789],[72.4175,54.1512],[72.5068,54.1402],[72.5153,54.1127],[72.5129,54.1051],[72.4897,54.108],[72.4916,54.1135],[72.4403,54.1204],[72.4335,54.1021],[72.3781,54.1089],[72.3694,54.0834],[72.4073,54.0782],[72.3971,54.0514],[72.4353,54.0461],[72.4179,53.9985],[72.3696,53.9447],[72.4298,53.9128],[72.4866,53.9008],[72.5452,53.9793],[72.7143,53.9509],[72.7195,53.9996],[72.6802,54.0448],[72.5716,54.052],[72.5668,54.0389],[72.5327,54.0436],[72.5609,54.1166],[72.6132,54.1222],[72.6088,54.1369],[72.7236,54.1227],[72.8252,54.1211],[72.8317,54.0979],[72.9939,54.0978],[72.9786,54.0496],[73.0602,54.0403],[73.0576,54.032],[73.0718,54.0304],[73.0668,53.9855],[73.1925,53.9703],[73.2782,53.9541],[73.2761,53.9428],[73.4035,53.9452],[73.4021,53.9788],[73.4573,53.964],[73.5056,53.9384],[73.5226,53.9411],[73.535,53.9506],[73.5208,53.966],[73.5188,54.0042],[73.5831,54.0158],[73.5821,54.0125],[73.6087,54.0075],[73.656,54.0449],[73.6298,54.07],[73.7036,54.066],[73.6989,54.0484],[73.767,54.0538],[73.691,53.8565],[73.452,53.8763],[73.4284,53.8485],[73.4301,53.8237],[73.4491,53.8071],[73.3993,53.7931],[73.3434,53.788],[73.3556,53.7664],[73.3419,53.7182],[73.3224,53.6759],[73.2528,53.6746],[73.2552,53.6408],[73.2772,53.639],[73.2396,53.569],[73.3468,53.543],[73.345,53.5337],[73.3972,53.5218],[73.3864,53.4878],[73.3627,53.4679],[73.438,53.435],[73.5812,53.5202],[73.5943,53.559],[73.6451,53.5528],[73.6664,53.613],[73.7475,53.6069],[73.821,53.5782],[73.901,53.6511],[74.0717,53.6297],[74.0509,53.5661],[74.146,53.5543],[74.162,53.6016],[74.243,53.5883],[74.2344,53.569],[74.2871,53.5601],[74.268,53.5235],[74.3053,53.5173],[74.2913,53.4918],[74.3897,53.456],[74.4539,53.5388],[74.4883,53.5756],[74.4473,53.581],[74.451,53.5896],[74.4213,53.5939],[74.4577,53.6913],[74.6349,53.6681],[74.6677,53.7561],[74.7571,53.7444],[74.7886,53.8282],[74.8633,53.8179],[74.8848,53.8243],[74.9827,53.8223],[74.983,53.8172],[74.9891,53.8185],[74.9844,53.8119],[75.0263,53.8025],[75.0299,53.796],[75.0536,53.7956],[75.2167,53.876],[75.2642,53.9087],[75.3243,53.9395],[75.3772,53.9596],[75.4112,53.9596],[75.4115,53.9721],[75.4404,53.9724],[75.4417,54.0079],[75.4347,54.0098],[75.3756,54.0696],[75.5285,54.1149],[75.5979,54.0982],[75.6893,54.1227],[75.6868,54.3392],[75.6908,54.5481],[75.8045,54.5409],[75.8265,54.603],[75.8514,54.61],[75.8377,54.6285],[75.8248,54.6664],[75.8039,54.6693],[75.8024,54.685],[75.8117,54.6902],[75.8008,54.6967],[75.7869,54.6926],[75.737,54.6996],[75.7387,54.6722],[75.6858,54.6742],[75.6836,54.7096],[75.6418,54.8072],[75.613,54.8053],[75.6048,54.8209],[75.546,54.8171],[75.5458,54.7985],[75.5319,54.8029],[75.4973,54.8646],[75.4928,54.8843],[75.5175,54.8992]],[[71.2574,56.302],[71.1926,56.3014],[71.1928,56.3169],[71.2693,56.3164],[71.2588,56.31],[71.2574,56.302]],[[71.0817,56.3201],[71.0188,56.3566],[71.0331,56.3617],[71.0582,56.3517],[71.0919,56.3309],[71.0817,56.3201]]]]}}]}