{"type":"FeatureCollection","meta":{"generated_at":"2026-09-22T12:27:24.624Z","sources":["OpenStreetMap via Overpass API"],"license":"ODbL 1.0 — © OpenStreetMap contributors"},"features":[{"type":"Feature","geometry":{"type":"Point","coordinates":[73.13612,55.09057]},"properties":{"osm_id":15832542,"kind":"dam","name":"Красногорский гидроузел","river":null,"brand":null}},{"type":"Feature","geometry":{"type":"Point","coordinates":[72.19228,55.89423]},"properties":{"osm_id":21320592,"kind":"fuel","name":null,"river":null,"brand":null}},{"type":"Feature","geometry":{"type":"Point","coordinates":[73.42317,54.89285]},"properties":{"osm_id":39107071,"kind":"fuel","name":"Газпромнефть","river":null,"brand":"Газпромнефть"}},{"type":"Feature","geometry":{"type":"Point","coordinates":[73.40061,54.98482]},"properties":{"osm_id":39594577,"kind":"fuel","name":"Газпромнефть","river":null,"brand":"Газпромнефть"}},{"type":"Feature","geometry":{"type":"Point","coordinates":[73.01609,54.91102]},"properties":{"osm_id":39901001,"kind":"camp_site","name":"ДСОЛ Родничок","river":null,"brand":null}},{"type":"Feature","geometry":{"type":"Point","coordinates":[73.48734,54.95651]},"properties":{"osm_id":61352368,"kind":"fuel","name":"Газпромнефть","river":null,"brand":"Газпромнефть"}},{"type":"Feature","geometry":{"type":"Point","coordinates":[73.37468,55.00462]},"properties":{"osm_id":80584899,"kind":"fuel","name":"Топлайн №8","river":null,"brand":null}},{"type":"Feature","geometry":{"type":"Point","coordinates":[73.40637,55.02195]},"properties":{"osm_id":80715701,"kind":"fuel","name":"Газпромнефть","river":null,"brand":"Газпромнефть"}},{"type":"Feature","geometry":{"type":"Point","coordinates":[73.42028,55.0121]},"properties":{"osm_id":92027502,"kind":"fuel","name":"Газпромнефть","river":null,"brand":"Газпромнефть"}},{"type":"Feature","geometry":{"type":"Point","coordinates":[72.97184,54.21956]},"properties":{"osm_id":111809168,"kind":"fuel","name":"Газпромнефть","river":null,"brand":"Газпромнефть"}},{"type":"Feature","geometry":{"type":"Point","coordinates":[74.06757,55.00493]},"properties":{"osm_id":113780157,"kind":"fuel","name":null,"river":null,"brand":null}},{"type":"Feature","geometry":{"type":"Point","coordinates":[73.28866,54.99575]},"properties":{"osm_id":149579233,"kind":"fuel","name":"Газпромнефть","river":null,"brand":"Газпромнефть"}},{"type":"Feature","geometry":{"type":"Point","coordinates":[73.35419,54.87776]},"properties":{"osm_id":152772975,"kind":"fuel","name":null,"river":null,"brand":null}},{"type":"Feature","geometry":{"type":"Point","coordinates":[73.31466,54.93957]},"properties":{"osm_id":158010937,"kind":"fuel","name":"Юнигаз","river":null,"brand":null}},{"type":"Feature","geometry":{"type":"Point","coordinates":[73.30946,54.97383]},"properties":{"osm_id":160654389,"kind":"fuel","name":"Сибгаз","river":null,"brand":null}},{"type":"Feature","geometry":{"type":"Point","coordinates":[71.67089,56.08327]},"properties":{"osm_id":187360234,"kind":"dam","name":"Центральная улица","river":null,"brand":null}},{"type":"Feature","geometry":{"type":"Point","coordinates":[74.78456,54.16521]},"properties":{"osm_id":230789102,"kind":"fuel","name":null,"river":null,"brand":null}},{"type":"Feature","geometry":{"type":"Point","coordinates":[74.69493,54.15988]},"properties":{"osm_id":238696597,"kind":"fuel","name":"АГЗС","river":null,"brand":null}},{"type":"Feature","geometry":{"type":"Point","coordinates":[75.25204,56.35903]},"properties":{"osm_id":239275674,"kind":"fuel","name":"АГЗС","river":null,"brand":null}},{"type":"Feature","geometry":{"type":"Point","coordinates":[73.3443,55.00483]},"properties":{"osm_id":280175586,"kind":"fuel","name":"Юнигаз","river":null,"brand":"Юнигаз"}},{"type":"Feature","geometry":{"type":"Point","coordinates":[72.02267,55.0397]},"properties":{"osm_id":290566633,"kind":"fuel","name":null,"river":null,"brand":null}},{"type":"Feature","geometry":{"type":"Point","coordinates":[73.37772,54.99426]},"properties":{"osm_id":306225012,"kind":"fuel","name":"Юнигаз","river":null,"brand":null}},{"type":"Feature","geometry":{"type":"Point","coordinates":[73.44257,54.90924]},"properties":{"osm_id":310054028,"kind":"fuel","name":null,"river":null,"brand":null}},{"type":"Feature","geometry":{"type":"Point","coordinates":[73.33544,55.01453]},"properties":{"osm_id":310121921,"kind":"fuel","name":"Газпромнефть","river":null,"brand":"Газпромнефть"}},{"type":"Feature","geometry":{"type":"Point","coordinates":[73.39949,55.46106]},"properties":{"osm_id":417783754,"kind":"weir","name":null,"river":null,"brand":null}},{"type":"Feature","geometry":{"type":"Point","coordinates":[73.43204,55.47239]},"properties":{"osm_id":417783756,"kind":"weir","name":null,"river":null,"brand":null}},{"type":"Feature","geometry":{"type":"Point","coordinates":[73.41753,55.46801]},"properties":{"osm_id":417783758,"kind":"weir","name":null,"river":null,"brand":null}},{"type":"Feature","geometry":{"type":"Point","coordinates":[75.25644,55.11164]},"properties":{"osm_id":422374539,"kind":"fuel","name":"Топлайн №19","river":null,"brand":null}},{"type":"Feature","geometry":{"type":"Point","coordinates":[75.25478,55.11263]},"properties":{"osm_id":422374540,"kind":"fuel","name":"Топлайн №18","river":null,"brand":null}},{"type":"Feature","geometry":{"type":"Point","coordinates":[75.23776,55.11019]},"properties":{"osm_id":422374545,"kind":"fuel","name":"Газпромнефть","river":null,"brand":"Газпромнефть"}},{"type":"Feature","geometry":{"type":"Point","coordinates":[74.51814,55.00182]},"properties":{"osm_id":422379325,"kind":"fuel","name":"Опти","river":null,"brand":null}},{"type":"Feature","geometry":{"type":"Point","coordinates":[73.66087,54.91497]},"properties":{"osm_id":422795360,"kind":"fuel","name":null,"river":null,"brand":null}},{"type":"Feature","geometry":{"type":"Point","coordinates":[73.29371,54.86997]},"properties":{"osm_id":447530251,"kind":"fuel","name":null,"river":null,"brand":null}},{"type":"Feature","geometry":{"type":"Point","coordinates":[74.57471,56.25098]},"properties":{"osm_id":447619611,"kind":"dam","name":null,"river":null,"brand":null}},{"type":"Feature","geometry":{"type":"Point","coordinates":[72.97637,54.22299]},"properties":{"osm_id":473176549,"kind":"fuel","name":"Газпромнефть","river":null,"brand":"Газпромнефть"}},{"type":"Feature","geometry":{"type":"Point","coordinates":[73.32885,55.04976]},"properties":{"osm_id":474622835,"kind":"fuel","name":"Газпромнефть","river":null,"brand":"Газпромнефть"}},{"type":"Feature","geometry":{"type":"Point","coordinates":[74.69086,54.25731]},"properties":{"osm_id":483617559,"kind":"fuel","name":null,"river":null,"brand":null}},{"type":"Feature","geometry":{"type":"Point","coordinates":[74.28758,55.09895]},"properties":{"osm_id":490055275,"kind":"dam","name":null,"river":null,"brand":null}},{"type":"Feature","geometry":{"type":"Point","coordinates":[74.60247,55.00269]},"properties":{"osm_id":535969464,"kind":"fuel","name":"Омич","river":null,"brand":null}},{"type":"Feature","geometry":{"type":"Point","coordinates":[74.13517,54.98227]},"properties":{"osm_id":550839123,"kind":"fuel","name":null,"river":null,"brand":null}},{"type":"Feature","geometry":{"type":"Point","coordinates":[73.30124,54.97141]},"properties":{"osm_id":570404501,"kind":"fuel","name":"Топлайн №55","river":null,"brand":"Топлайн, Газпром"}},{"type":"Feature","geometry":{"type":"Point","coordinates":[73.30297,54.88235]},"properties":{"osm_id":573002900,"kind":"fuel","name":"АГЗС","river":null,"brand":null}},{"type":"Feature","geometry":{"type":"Point","coordinates":[73.44327,54.93118]},"properties":{"osm_id":595691581,"kind":"fuel","name":"Газпромнефть","river":null,"brand":"Газпромнефть"}},{"type":"Feature","geometry":{"type":"Point","coordinates":[73.41685,55.05882]},"properties":{"osm_id":608535908,"kind":"fuel","name":"Газпромнефть","river":null,"brand":"Газпромнефть"}},{"type":"Feature","geometry":{"type":"Point","coordinates":[73.40509,54.94873]},"properties":{"osm_id":617649879,"kind":"fuel","name":"Топлайн №1","river":null,"brand":null}},{"type":"Feature","geometry":{"type":"Point","coordinates":[73.3983,54.96469]},"properties":{"osm_id":617656273,"kind":"fuel","name":"Газпромнефть","river":null,"brand":"Газпромнефть"}},{"type":"Feature","geometry":{"type":"Point","coordinates":[70.43869,54.91883]},"properties":{"osm_id":637366261,"kind":"fuel","name":"Казах Ойл","river":null,"brand":"Qazaq Oil"}},{"type":"Feature","geometry":{"type":"Point","coordinates":[70.44901,54.90397]},"properties":{"osm_id":637366280,"kind":"fuel","name":"Бахыт","river":null,"brand":null}},{"type":"Feature","geometry":{"type":"Point","coordinates":[70.45097,54.89373]},"properties":{"osm_id":637366283,"kind":"fuel","name":"Бахыт","river":null,"brand":null}},{"type":"Feature","geometry":{"type":"Point","coordinates":[73.29011,54.86455]},"properties":{"osm_id":641524365,"kind":"fuel","name":"АГЗС","river":null,"brand":null}},{"type":"Feature","geometry":{"type":"Point","coordinates":[73.28604,54.93036]},"properties":{"osm_id":641524370,"kind":"fuel","name":"Газпромнефть","river":null,"brand":"Газпромнефть"}},{"type":"Feature","geometry":{"type":"Point","coordinates":[73.20895,54.93406]},"properties":{"osm_id":641524372,"kind":"fuel","name":"Газпромнефть","river":null,"brand":"Газпромнефть"}},{"type":"Feature","geometry":{"type":"Point","coordinates":[73.21125,54.99892]},"properties":{"osm_id":641524376,"kind":"fuel","name":"Газпромнефть","river":null,"brand":"Газпромнефть"}},{"type":"Feature","geometry":{"type":"Point","coordinates":[73.28407,54.9491]},"properties":{"osm_id":641524379,"kind":"fuel","name":"Газпромнефть","river":null,"brand":"Газпромнефть"}},{"type":"Feature","geometry":{"type":"Point","coordinates":[73.27463,54.95444]},"properties":{"osm_id":641524382,"kind":"fuel","name":"АГЗС","river":null,"brand":null}},{"type":"Feature","geometry":{"type":"Point","coordinates":[73.23292,54.98871]},"properties":{"osm_id":641524393,"kind":"fuel","name":"АГЗС","river":null,"brand":null}},{"type":"Feature","geometry":{"type":"Point","coordinates":[73.23427,54.99055]},"properties":{"osm_id":641524398,"kind":"fuel","name":"АГЗС","river":null,"brand":null}},{"type":"Feature","geometry":{"type":"Point","coordinates":[73.25201,54.99523]},"properties":{"osm_id":641524401,"kind":"fuel","name":null,"river":null,"brand":null}},{"type":"Feature","geometry":{"type":"Point","coordinates":[73.30492,54.9002]},"properties":{"osm_id":641524404,"kind":"fuel","name":"Газпромнефть","river":null,"brand":"Газпромнефть"}},{"type":"Feature","geometry":{"type":"Point","coordinates":[73.35655,54.91009]},"properties":{"osm_id":641524410,"kind":"fuel","name":null,"river":null,"brand":null}},{"type":"Feature","geometry":{"type":"Point","coordinates":[73.43489,54.91161]},"properties":{"osm_id":641524414,"kind":"fuel","name":"Газпромнефть","river":null,"brand":"Газпромнефть"}},{"type":"Feature","geometry":{"type":"Point","coordinates":[73.38347,55.00659]},"properties":{"osm_id":641524420,"kind":"fuel","name":null,"river":null,"brand":null}},{"type":"Feature","geometry":{"type":"Point","coordinates":[73.47434,54.95858]},"properties":{"osm_id":641524429,"kind":"fuel","name":null,"river":null,"brand":null}},{"type":"Feature","geometry":{"type":"Point","coordinates":[73.43842,54.98441]},"properties":{"osm_id":641524435,"kind":"fuel","name":null,"river":null,"brand":null}},{"type":"Feature","geometry":{"type":"Point","coordinates":[73.44761,54.98125]},"properties":{"osm_id":641524442,"kind":"fuel","name":null,"river":null,"brand":null}},{"type":"Feature","geometry":{"type":"Point","coordinates":[73.44937,54.98893]},"properties":{"osm_id":641524444,"kind":"fuel","name":"Газпромнефть","river":null,"brand":"Газпромнефть"}},{"type":"Feature","geometry":{"type":"Point","coordinates":[73.4555,54.98304]},"properties":{"osm_id":641524446,"kind":"fuel","name":null,"river":null,"brand":null}},{"type":"Feature","geometry":{"type":"Point","coordinates":[73.21302,55.03742]},"properties":{"osm_id":641524447,"kind":"fuel","name":"Газпромнефть","river":null,"brand":"Газпромнефть"}},{"type":"Feature","geometry":{"type":"Point","coordinates":[73.2133,55.0344]},"properties":{"osm_id":641524448,"kind":"fuel","name":null,"river":null,"brand":null}},{"type":"Feature","geometry":{"type":"Point","coordinates":[73.22224,55.05315]},"properties":{"osm_id":641524451,"kind":"fuel","name":null,"river":null,"brand":null}},{"type":"Feature","geometry":{"type":"Point","coordinates":[73.28791,55.06168]},"properties":{"osm_id":641524457,"kind":"fuel","name":"Дальнобойщик","river":null,"brand":null}},{"type":"Feature","geometry":{"type":"Point","coordinates":[73.31437,55.06457]},"properties":{"osm_id":641524470,"kind":"fuel","name":"Газэнерго","river":null,"brand":null}},{"type":"Feature","geometry":{"type":"Point","coordinates":[73.30123,55.07475]},"properties":{"osm_id":641524472,"kind":"fuel","name":"СГ-Транс","river":null,"brand":null}},{"type":"Feature","geometry":{"type":"Point","coordinates":[73.3038,55.0752]},"properties":{"osm_id":641524474,"kind":"fuel","name":"Газпромнефть","river":null,"brand":"Газпромнефть"}},{"type":"Feature","geometry":{"type":"Point","coordinates":[73.43082,55.0258]},"properties":{"osm_id":641524476,"kind":"fuel","name":"АГЗС","river":null,"brand":null}},{"type":"Feature","geometry":{"type":"Point","coordinates":[73.44189,55.0189]},"properties":{"osm_id":641524478,"kind":"fuel","name":"Газпромнефть","river":null,"brand":"Газпромнефть"}},{"type":"Feature","geometry":{"type":"Point","coordinates":[73.43936,55.03365]},"properties":{"osm_id":641524480,"kind":"fuel","name":"Газпромнефть","river":null,"brand":"Газпромнефть"}},{"type":"Feature","geometry":{"type":"Point","coordinates":[73.48837,54.9562]},"properties":{"osm_id":641524486,"kind":"fuel","name":"АГЗС","river":null,"brand":null}},{"type":"Feature","geometry":{"type":"Point","coordinates":[73.48186,54.98666]},"properties":{"osm_id":641524488,"kind":"fuel","name":"Газпромнефть","river":null,"brand":"Газпромнефть"}},{"type":"Feature","geometry":{"type":"Point","coordinates":[73.48834,54.99474]},"properties":{"osm_id":641524500,"kind":"fuel","name":"Газпромнефть","river":null,"brand":"Газпромнефть"}},{"type":"Feature","geometry":{"type":"Point","coordinates":[73.39904,54.96068]},"properties":{"osm_id":653085991,"kind":"fuel","name":"Газоил","river":null,"brand":null}},{"type":"Feature","geometry":{"type":"Point","coordinates":[73.42703,55.07217]},"properties":{"osm_id":687487116,"kind":"fuel","name":"Сибирьгаз АГЗС","river":null,"brand":null}},{"type":"Feature","geometry":{"type":"Point","coordinates":[73.4267,55.06532]},"properties":{"osm_id":687487155,"kind":"fuel","name":"АГЗС Омская областная газовая компания","river":null,"brand":null}},{"type":"Feature","geometry":{"type":"Point","coordinates":[73.33458,54.84869]},"properties":{"osm_id":751801520,"kind":"dam","name":null,"river":null,"brand":null}},{"type":"Feature","geometry":{"type":"Point","coordinates":[73.33255,54.84806]},"properties":{"osm_id":751801521,"kind":"dam","name":null,"river":null,"brand":null}},{"type":"Feature","geometry":{"type":"Point","coordinates":[73.51024,54.8905]},"properties":{"osm_id":757613943,"kind":"fuel","name":"Татнефть","river":null,"brand":"Татнефть"}},{"type":"Feature","geometry":{"type":"Point","coordinates":[73.17353,55.00972]},"properties":{"osm_id":781791985,"kind":"fuel","name":"Топлайн","river":null,"brand":null}},{"type":"Feature","geometry":{"type":"Point","coordinates":[71.50943,55.98491]},"properties":{"osm_id":781791991,"kind":"fuel","name":"Газпромнефть","river":null,"brand":"Газпромнефть"}},{"type":"Feature","geometry":{"type":"Point","coordinates":[73.29763,54.97841]},"properties":{"osm_id":793208184,"kind":"fuel","name":"Газпромнефть","river":null,"brand":"Газпромнефть"}},{"type":"Feature","geometry":{"type":"Point","coordinates":[74.77773,56.16392]},"properties":{"osm_id":833675398,"kind":"camp_site","name":"База \"Артын\"","river":null,"brand":null}},{"type":"Feature","geometry":{"type":"Point","coordinates":[74.78242,54.17239]},"properties":{"osm_id":846217584,"kind":"fuel","name":"Газпромнефть","river":null,"brand":"Газпромнефть"}},{"type":"Feature","geometry":{"type":"Point","coordinates":[74.82367,54.16411]},"properties":{"osm_id":846218917,"kind":"fuel","name":null,"river":null,"brand":null}},{"type":"Feature","geometry":{"type":"Point","coordinates":[73.31142,54.97523]},"properties":{"osm_id":856451039,"kind":"fuel","name":"Юнигаз","river":null,"brand":"Лукойл"}},{"type":"Feature","geometry":{"type":"Point","coordinates":[73.26726,54.98952]},"properties":{"osm_id":867818607,"kind":"fuel","name":"Топлайн №5","river":null,"brand":"Топлайн"}},{"type":"Feature","geometry":{"type":"Point","coordinates":[74.11348,55.01149]},"properties":{"osm_id":868526652,"kind":"fuel","name":"Газпромнефть","river":null,"brand":"Газпромнефть"}},{"type":"Feature","geometry":{"type":"Point","coordinates":[73.3931,54.96428]},"properties":{"osm_id":870183770,"kind":"fuel","name":"Газпромнефть","river":null,"brand":"Газпромнефть"}},{"type":"Feature","geometry":{"type":"Point","coordinates":[73.41531,54.96489]},"properties":{"osm_id":873829667,"kind":"fuel","name":"Лукойл","river":null,"brand":"Лукойл"}},{"type":"Feature","geometry":{"type":"Point","coordinates":[73.384,54.90671]},"properties":{"osm_id":894111219,"kind":"fuel","name":"Топлайн","river":null,"brand":null}},{"type":"Feature","geometry":{"type":"Point","coordinates":[75.98519,55.24073]},"properties":{"osm_id":914404443,"kind":"fuel","name":"Газпромнефть","river":null,"brand":"Газпромнефть"}},{"type":"Feature","geometry":{"type":"Point","coordinates":[74.94305,55.4483]},"properties":{"osm_id":939054111,"kind":"fuel","name":null,"river":null,"brand":null}},{"type":"Feature","geometry":{"type":"Point","coordinates":[73.34709,54.96446]},"properties":{"osm_id":957019802,"kind":"fuel","name":"Газпромнефть","river":null,"brand":"Газпромнефть"}},{"type":"Feature","geometry":{"type":"Point","coordinates":[74.82728,54.1617]},"properties":{"osm_id":964784999,"kind":"fuel","name":null,"river":null,"brand":null}},{"type":"Feature","geometry":{"type":"Point","coordinates":[73.31705,54.99548]},"properties":{"osm_id":968631332,"kind":"fuel","name":"Топ Лайн","river":null,"brand":null}},{"type":"Feature","geometry":{"type":"Point","coordinates":[76.22603,55.22081]},"properties":{"osm_id":973644173,"kind":"fuel","name":"Газпромнефть","river":null,"brand":"Газпромнефть"}},{"type":"Feature","geometry":{"type":"Point","coordinates":[73.44394,54.92801]},"properties":{"osm_id":981995761,"kind":"fuel","name":"Лукойл","river":null,"brand":"Лукойл"}},{"type":"Feature","geometry":{"type":"Point","coordinates":[74.05787,55.53236]},"properties":{"osm_id":1022711373,"kind":"fuel","name":"Газпромнефть","river":null,"brand":"Газпромнефть"}},{"type":"Feature","geometry":{"type":"Point","coordinates":[74.7476,56.14687]},"properties":{"osm_id":1054509926,"kind":"camp_site","name":"База \"Ермак\"","river":null,"brand":null}},{"type":"Feature","geometry":{"type":"Point","coordinates":[73.89293,55.04626]},"properties":{"osm_id":1107460915,"kind":"fuel","name":null,"river":null,"brand":null}},{"type":"Feature","geometry":{"type":"Point","coordinates":[73.26173,55.11952]},"properties":{"osm_id":1111363313,"kind":"fuel","name":"Лукойл","river":null,"brand":"Лукойл"}},{"type":"Feature","geometry":{"type":"Point","coordinates":[73.66101,55.31006]},"properties":{"osm_id":1121660083,"kind":"fuel","name":"ОМУС-1","river":null,"brand":null}},{"type":"Feature","geometry":{"type":"Point","coordinates":[73.32042,54.98902]},"properties":{"osm_id":1129380493,"kind":"fuel","name":"Газпромнефть","river":null,"brand":"Газпромнефть"}},{"type":"Feature","geometry":{"type":"Point","coordinates":[73.23819,54.98985]},"properties":{"osm_id":1160715873,"kind":"fuel","name":"Топлайн","river":null,"brand":null}},{"type":"Feature","geometry":{"type":"Point","coordinates":[73.23797,54.98801]},"properties":{"osm_id":1160715878,"kind":"fuel","name":"Топлайн","river":null,"brand":null}},{"type":"Feature","geometry":{"type":"Point","coordinates":[73.2522,54.9958]},"properties":{"osm_id":1160727448,"kind":"fuel","name":"Топлайн №2","river":null,"brand":null}},{"type":"Feature","geometry":{"type":"Point","coordinates":[73.42302,54.95191]},"properties":{"osm_id":1194010731,"kind":"fuel","name":"Лукойл","river":null,"brand":"Лукойл"}},{"type":"Feature","geometry":{"type":"Point","coordinates":[72.51158,55.64116]},"properties":{"osm_id":1196692406,"kind":"fuel","name":"Газпромнефть","river":null,"brand":"Газпромнефть"}},{"type":"Feature","geometry":{"type":"Point","coordinates":[72.21243,55.86426]},"properties":{"osm_id":1196694007,"kind":"fuel","name":"Газпромнефть","river":null,"brand":"Газпромнефть"}},{"type":"Feature","geometry":{"type":"Point","coordinates":[73.04005,55.11598]},"properties":{"osm_id":1201822051,"kind":"fuel","name":"Топлайн №9","river":null,"brand":null}},{"type":"Feature","geometry":{"type":"Point","coordinates":[72.91135,55.22606]},"properties":{"osm_id":1201828686,"kind":"fuel","name":"Сиблюкс","river":null,"brand":null}},{"type":"Feature","geometry":{"type":"Point","coordinates":[72.91498,55.22496]},"properties":{"osm_id":1201828690,"kind":"fuel","name":"Газпромнефть","river":null,"brand":"Газпромнефть"}},{"type":"Feature","geometry":{"type":"Point","coordinates":[73.29366,54.86856]},"properties":{"osm_id":1201906979,"kind":"fuel","name":"Топлайн №11","river":null,"brand":null}},{"type":"Feature","geometry":{"type":"Point","coordinates":[73.35527,54.88138]},"properties":{"osm_id":1201922235,"kind":"fuel","name":"Газпромнефть","river":null,"brand":"Газпромнефть"}},{"type":"Feature","geometry":{"type":"Point","coordinates":[74.12274,54.97619]},"properties":{"osm_id":1202878391,"kind":"fuel","name":"Газпромнефть","river":null,"brand":"Газпромнефть"}},{"type":"Feature","geometry":{"type":"Point","coordinates":[71.47362,55.98784]},"properties":{"osm_id":1203240642,"kind":"fuel","name":"Топлайн №16","river":null,"brand":"Топлайн"}},{"type":"Feature","geometry":{"type":"Point","coordinates":[71.28692,54.95553]},"properties":{"osm_id":1208606876,"kind":"fuel","name":"Газпромнефть","river":null,"brand":"Газпромнефть"}},{"type":"Feature","geometry":{"type":"Point","coordinates":[71.28584,54.95705]},"properties":{"osm_id":1208606879,"kind":"fuel","name":null,"river":null,"brand":null}},{"type":"Feature","geometry":{"type":"Point","coordinates":[71.89773,54.95042]},"properties":{"osm_id":1208607987,"kind":"fuel","name":"Газпромнефть","river":null,"brand":"Газпромнефть"}},{"type":"Feature","geometry":{"type":"Point","coordinates":[71.89822,54.9492]},"properties":{"osm_id":1208607988,"kind":"fuel","name":"АГЗС","river":null,"brand":null}},{"type":"Feature","geometry":{"type":"Point","coordinates":[72.63826,54.98745]},"properties":{"osm_id":1208609308,"kind":"fuel","name":"АГЗС","river":null,"brand":null}},{"type":"Feature","geometry":{"type":"Point","coordinates":[73.77262,54.92974]},"properties":{"osm_id":1215868562,"kind":"fuel","name":"Осойл","river":null,"brand":null}},{"type":"Feature","geometry":{"type":"Point","coordinates":[73.42692,55.07232]},"properties":{"osm_id":1232615401,"kind":"fuel","name":null,"river":null,"brand":null}},{"type":"Feature","geometry":{"type":"Point","coordinates":[73.33076,55.04754]},"properties":{"osm_id":1232830947,"kind":"fuel","name":"Регион Газ","river":null,"brand":null}},{"type":"Feature","geometry":{"type":"Point","coordinates":[72.21506,55.8799]},"properties":{"osm_id":1236927962,"kind":"fuel","name":"Топлайн №22","river":null,"brand":"Топлайн"}},{"type":"Feature","geometry":{"type":"Point","coordinates":[74.36117,55.3582]},"properties":{"osm_id":1239396051,"kind":"fuel","name":"Газпромнефть","river":null,"brand":"Газпромнефть"}},{"type":"Feature","geometry":{"type":"Point","coordinates":[73.20397,54.98776]},"properties":{"osm_id":1243433865,"kind":"fuel","name":null,"river":null,"brand":null}},{"type":"Feature","geometry":{"type":"Point","coordinates":[71.48627,55.9856]},"properties":{"osm_id":1244162008,"kind":"fuel","name":"Газпромнефть","river":null,"brand":"Газпромнефть"}},{"type":"Feature","geometry":{"type":"Point","coordinates":[72.79956,55.49863]},"properties":{"osm_id":1244269590,"kind":"fuel","name":null,"river":null,"brand":null}},{"type":"Feature","geometry":{"type":"Point","coordinates":[73.27266,54.95177]},"properties":{"osm_id":1245016983,"kind":"fuel","name":"Топлайн №6","river":null,"brand":null}},{"type":"Feature","geometry":{"type":"Point","coordinates":[71.29925,54.9017]},"properties":{"osm_id":1245496975,"kind":"fuel","name":null,"river":null,"brand":null}},{"type":"Feature","geometry":{"type":"Point","coordinates":[71.29939,54.90141]},"properties":{"osm_id":1245496981,"kind":"fuel","name":"ИП Ессе Н.Н.","river":null,"brand":null}},{"type":"Feature","geometry":{"type":"Point","coordinates":[73.26735,55.05007]},"properties":{"osm_id":1246820732,"kind":"fuel","name":"ЗапСибГаз","river":null,"brand":null}},{"type":"Feature","geometry":{"type":"Point","coordinates":[73.30798,54.90448]},"properties":{"osm_id":1249556186,"kind":"fuel","name":"Топлайн №23","river":null,"brand":null}},{"type":"Feature","geometry":{"type":"Point","coordinates":[73.44248,54.90925]},"properties":{"osm_id":1249792829,"kind":"fuel","name":"ТрансСиб","river":null,"brand":null}},{"type":"Feature","geometry":{"type":"Point","coordinates":[73.44104,54.90664]},"properties":{"osm_id":1249792830,"kind":"fuel","name":"Юнигаз","river":null,"brand":null}},{"type":"Feature","geometry":{"type":"Point","coordinates":[73.45779,54.91573]},"properties":{"osm_id":1249801646,"kind":"fuel","name":null,"river":null,"brand":"Юнигаз"}},{"type":"Feature","geometry":{"type":"Point","coordinates":[73.40731,55.00999]},"properties":{"osm_id":1250193116,"kind":"fuel","name":"Газпромнефть","river":null,"brand":"Газпромнефть"}},{"type":"Feature","geometry":{"type":"Point","coordinates":[73.43476,54.99223]},"properties":{"osm_id":1252124601,"kind":"fuel","name":"Топлайн №12","river":null,"brand":null}},{"type":"Feature","geometry":{"type":"Point","coordinates":[73.25845,55.06327]},"properties":{"osm_id":1252124629,"kind":"fuel","name":"Топлайн №20","river":null,"brand":null}},{"type":"Feature","geometry":{"type":"Point","coordinates":[73.29634,55.04824]},"properties":{"osm_id":1252124676,"kind":"fuel","name":"Топлайн №4","river":null,"brand":"Топлайн"}},{"type":"Feature","geometry":{"type":"Point","coordinates":[73.44253,55.01427]},"properties":{"osm_id":1252124965,"kind":"fuel","name":"Топлайн №7","river":null,"brand":null}},{"type":"Feature","geometry":{"type":"Point","coordinates":[73.45869,54.90947]},"properties":{"osm_id":1252125058,"kind":"fuel","name":"Топлайн №3","river":null,"brand":null}},{"type":"Feature","geometry":{"type":"Point","coordinates":[73.43734,54.96441]},"properties":{"osm_id":1252125095,"kind":"fuel","name":"Топлайн №21","river":null,"brand":null}},{"type":"Feature","geometry":{"type":"Point","coordinates":[73.05242,54.70544]},"properties":{"osm_id":1252198969,"kind":"fuel","name":"Газпромнефть","river":null,"brand":"Газпромнефть"}},{"type":"Feature","geometry":{"type":"Point","coordinates":[73.31534,54.9136]},"properties":{"osm_id":1252676287,"kind":"fuel","name":"Газпромнефть","river":null,"brand":"Газпромнефть"}},{"type":"Feature","geometry":{"type":"Point","coordinates":[74.56736,55.0433]},"properties":{"osm_id":1270088941,"kind":"fuel","name":"Транссиб","river":null,"brand":null}},{"type":"Feature","geometry":{"type":"Point","coordinates":[74.84483,55.97506]},"properties":{"osm_id":1271736623,"kind":"fuel","name":null,"river":null,"brand":null}},{"type":"Feature","geometry":{"type":"Point","coordinates":[75.22185,56.36288]},"properties":{"osm_id":1276633748,"kind":"fuel","name":"Газпромнефть","river":null,"brand":"Газпромнефть"}},{"type":"Feature","geometry":{"type":"Point","coordinates":[75.99119,55.21767]},"properties":{"osm_id":1279998338,"kind":"fuel","name":"Барс","river":null,"brand":null}},{"type":"Feature","geometry":{"type":"Point","coordinates":[75.97642,55.20121]},"properties":{"osm_id":1279998340,"kind":"fuel","name":"Газпромнефть","river":null,"brand":"Газпромнефть"}},{"type":"Feature","geometry":{"type":"Point","coordinates":[74.21085,55.84357]},"properties":{"osm_id":1280089779,"kind":"fuel","name":null,"river":null,"brand":"Руснефть"}},{"type":"Feature","geometry":{"type":"Point","coordinates":[73.34445,55.00495]},"properties":{"osm_id":1288900371,"kind":"fuel","name":"Лукойл","river":null,"brand":"Лукойл"}},{"type":"Feature","geometry":{"type":"Point","coordinates":[73.32289,54.93198]},"properties":{"osm_id":1290238065,"kind":"fuel","name":"Лукойл","river":null,"brand":"Лукойл"}},{"type":"Feature","geometry":{"type":"Point","coordinates":[76.34864,54.90826]},"properties":{"osm_id":1291584714,"kind":"fuel","name":null,"river":null,"brand":null}},{"type":"Feature","geometry":{"type":"Point","coordinates":[73.42639,55.03527]},"properties":{"osm_id":1297120881,"kind":"fuel","name":"СибГаз","river":null,"brand":null}},{"type":"Feature","geometry":{"type":"Point","coordinates":[74.54821,55.0427]},"properties":{"osm_id":1328392171,"kind":"fuel","name":"Газпромнефть","river":null,"brand":"Газпромнефть"}},{"type":"Feature","geometry":{"type":"Point","coordinates":[75.05684,54.84426]},"properties":{"osm_id":1328566694,"kind":"fuel","name":"Топлайн №10","river":null,"brand":null}},{"type":"Feature","geometry":{"type":"Point","coordinates":[73.30096,54.97157]},"properties":{"osm_id":1333738981,"kind":"fuel","name":null,"river":null,"brand":null}},{"type":"Feature","geometry":{"type":"Point","coordinates":[73.49947,54.92689]},"properties":{"osm_id":1338038393,"kind":"fuel","name":null,"river":null,"brand":null}},{"type":"Feature","geometry":{"type":"Point","coordinates":[73.04044,54.95012]},"properties":{"osm_id":1340287114,"kind":"fuel","name":null,"river":null,"brand":null}},{"type":"Feature","geometry":{"type":"Point","coordinates":[73.14155,55.01501]},"properties":{"osm_id":1343464452,"kind":"fuel","name":null,"river":null,"brand":null}},{"type":"Feature","geometry":{"type":"Point","coordinates":[73.31699,55.03461]},"properties":{"osm_id":1354677694,"kind":"fuel","name":"Газпромнефть","river":null,"brand":"Газпромнефть"}},{"type":"Feature","geometry":{"type":"Point","coordinates":[73.61541,54.59191]},"properties":{"osm_id":1357779177,"kind":"fuel","name":"Газпромнефть","river":null,"brand":"Газпромнефть"}},{"type":"Feature","geometry":{"type":"Point","coordinates":[73.45267,54.92062]},"properties":{"osm_id":1359543245,"kind":"fuel","name":null,"river":null,"brand":null}},{"type":"Feature","geometry":{"type":"Point","coordinates":[73.61362,54.59229]},"properties":{"osm_id":1360240134,"kind":"fuel","name":"Октан №8","river":null,"brand":null}},{"type":"Feature","geometry":{"type":"Point","coordinates":[73.85461,53.77881]},"properties":{"osm_id":1361342323,"kind":"fuel","name":"Газпромнефть","river":null,"brand":"Газпромнефть"}},{"type":"Feature","geometry":{"type":"Point","coordinates":[73.41143,54.89694]},"properties":{"osm_id":1362622533,"kind":"fuel","name":"Лукойл","river":null,"brand":"Лукойл"}},{"type":"Feature","geometry":{"type":"Point","coordinates":[73.31302,55.06591]},"properties":{"osm_id":1372668456,"kind":"fuel","name":"Топлайн №52","river":null,"brand":null}},{"type":"Feature","geometry":{"type":"Point","coordinates":[75.25183,56.35991]},"properties":{"osm_id":1373093004,"kind":"fuel","name":"НикОйл","river":null,"brand":null}},{"type":"Feature","geometry":{"type":"Point","coordinates":[73.87293,54.66453]},"properties":{"osm_id":1381590708,"kind":"fuel","name":"Газпромнефть","river":null,"brand":"Газпромнефть"}},{"type":"Feature","geometry":{"type":"Point","coordinates":[74.07596,55.00212]},"properties":{"osm_id":1395703219,"kind":"fuel","name":"Топлайн АЗС №56","river":null,"brand":null}},{"type":"Feature","geometry":{"type":"Point","coordinates":[73.35181,54.92206]},"properties":{"osm_id":1399645555,"kind":"fuel","name":"Газпромнефть","river":null,"brand":"Газпромнефть"}},{"type":"Feature","geometry":{"type":"Point","coordinates":[73.34851,55.02735]},"properties":{"osm_id":1399645561,"kind":"fuel","name":"Ликойл","river":null,"brand":null}},{"type":"Feature","geometry":{"type":"Point","coordinates":[73.28358,54.99064]},"properties":{"osm_id":1416868245,"kind":"fuel","name":"Лукойл","river":null,"brand":"Лукойл"}},{"type":"Feature","geometry":{"type":"Point","coordinates":[73.13942,55.01536]},"properties":{"osm_id":1419961865,"kind":"fuel","name":"Мостовик","river":null,"brand":null}},{"type":"Feature","geometry":{"type":"Point","coordinates":[73.22952,54.99194]},"properties":{"osm_id":1425990536,"kind":"fuel","name":"Газпромнефть","river":null,"brand":"Газпромнефть"}},{"type":"Feature","geometry":{"type":"Point","coordinates":[71.37775,56.04058]},"properties":{"osm_id":1445467550,"kind":"fuel","name":"Татнефть","river":null,"brand":"Татнефть"}},{"type":"Feature","geometry":{"type":"Point","coordinates":[73.23505,54.89409]},"properties":{"osm_id":1445499577,"kind":"fuel","name":null,"river":null,"brand":null}},{"type":"Feature","geometry":{"type":"Point","coordinates":[73.21506,54.92804]},"properties":{"osm_id":1445499591,"kind":"fuel","name":"Лукойл","river":null,"brand":"Лукойл"}},{"type":"Feature","geometry":{"type":"Point","coordinates":[73.20975,54.99662]},"properties":{"osm_id":1445499594,"kind":"fuel","name":"Газпромнефть","river":null,"brand":"Газпромнефть"}},{"type":"Feature","geometry":{"type":"Point","coordinates":[76.06841,55.18608]},"properties":{"osm_id":1445523849,"kind":"fuel","name":"Газпромнефть","river":null,"brand":"Газпромнефть"}},{"type":"Feature","geometry":{"type":"Point","coordinates":[73.30378,55.07494]},"properties":{"osm_id":1458077923,"kind":"fuel","name":null,"river":null,"brand":null}},{"type":"Feature","geometry":{"type":"Point","coordinates":[73.41574,54.9169]},"properties":{"osm_id":1486723575,"kind":"fuel","name":"АГЗС","river":null,"brand":null}},{"type":"Feature","geometry":{"type":"Point","coordinates":[73.02631,54.94486]},"properties":{"osm_id":1497111358,"kind":"fuel","name":"Фаворит сервис","river":null,"brand":null}},{"type":"Feature","geometry":{"type":"Point","coordinates":[73.35185,54.9224]},"properties":{"osm_id":1498407554,"kind":"fuel","name":null,"river":null,"brand":null}},{"type":"Feature","geometry":{"type":"Point","coordinates":[73.373,54.88335]},"properties":{"osm_id":1498418244,"kind":"fuel","name":null,"river":null,"brand":null}},{"type":"Feature","geometry":{"type":"Point","coordinates":[73.17377,55.00992]},"properties":{"osm_id":1500203171,"kind":"fuel","name":null,"river":null,"brand":null}},{"type":"Feature","geometry":{"type":"Point","coordinates":[73.44117,54.9067]},"properties":{"osm_id":1500783162,"kind":"fuel","name":null,"river":null,"brand":null}},{"type":"Feature","geometry":{"type":"Point","coordinates":[73.44238,54.90878]},"properties":{"osm_id":1503730687,"kind":"fuel","name":"ООГК","river":null,"brand":null}},{"type":"Feature","geometry":{"type":"Point","coordinates":[73.45314,54.92082]},"properties":{"osm_id":1503748710,"kind":"fuel","name":"Топлайн №35","river":null,"brand":"Топлайн"}},{"type":"Feature","geometry":{"type":"Point","coordinates":[73.02529,54.94518]},"properties":{"osm_id":1504771405,"kind":"fuel","name":"Омская областная газовая компания","river":null,"brand":null}},{"type":"Feature","geometry":{"type":"Point","coordinates":[73.30721,54.90206]},"properties":{"osm_id":1545065097,"kind":"fuel","name":"АГЗС","river":null,"brand":null}},{"type":"Feature","geometry":{"type":"Point","coordinates":[73.29537,54.8654]},"properties":{"osm_id":1546873191,"kind":"fuel","name":"Топлайн №17","river":null,"brand":null}},{"type":"Feature","geometry":{"type":"Point","coordinates":[73.35595,54.92741]},"properties":{"osm_id":1546873206,"kind":"fuel","name":"Топлайн №26","river":null,"brand":null}},{"type":"Feature","geometry":{"type":"Point","coordinates":[75.9954,55.22492]},"properties":{"osm_id":1556624519,"kind":"fuel","name":null,"river":null,"brand":null}},{"type":"Feature","geometry":{"type":"Point","coordinates":[76.02485,55.2192]},"properties":{"osm_id":1558610172,"kind":"fuel","name":"АГЗС","river":null,"brand":null}},{"type":"Feature","geometry":{"type":"Point","coordinates":[73.43111,54.95764]},"properties":{"osm_id":1584017055,"kind":"fuel","name":"Газпромнефть","river":null,"brand":"Газпромнефть"}},{"type":"Feature","geometry":{"type":"Point","coordinates":[73.35717,54.92846]},"properties":{"osm_id":1588111838,"kind":"fuel","name":null,"river":null,"brand":null}},{"type":"Feature","geometry":{"type":"Point","coordinates":[73.25162,55.02818]},"properties":{"osm_id":1606212894,"kind":"fuel","name":"Топлайн №28","river":null,"brand":"Топлайн"}},{"type":"Feature","geometry":{"type":"Point","coordinates":[75.71426,55.57488]},"properties":{"osm_id":1612841526,"kind":"fuel","name":"АГЗС","river":null,"brand":null}},{"type":"Feature","geometry":{"type":"Point","coordinates":[75.71023,55.57635]},"properties":{"osm_id":1612841529,"kind":"fuel","name":null,"river":null,"brand":null}},{"type":"Feature","geometry":{"type":"Point","coordinates":[73.36622,55.02436]},"properties":{"osm_id":1640238002,"kind":"fuel","name":"Ныдинское","river":null,"brand":null}},{"type":"Feature","geometry":{"type":"Point","coordinates":[75.24828,55.10958]},"properties":{"osm_id":1675890266,"kind":"fuel","name":"Русьнефть","river":null,"brand":null}},{"type":"Feature","geometry":{"type":"Point","coordinates":[73.48446,55.58922]},"properties":{"osm_id":1681449636,"kind":"fuel","name":"Газпромнефть","river":null,"brand":"Газпром Нефть"}},{"type":"Feature","geometry":{"type":"Point","coordinates":[73.43931,54.88002]},"properties":{"osm_id":1682768612,"kind":"fuel","name":"Газпромнефть","river":null,"brand":"Газпромнефть"}},{"type":"Feature","geometry":{"type":"Point","coordinates":[74.38769,54.49517]},"properties":{"osm_id":1691607393,"kind":"fuel","name":"Сибгазнефтепродукт","river":null,"brand":null}},{"type":"Feature","geometry":{"type":"Point","coordinates":[73.27317,55.06617]},"properties":{"osm_id":1694195206,"kind":"fuel","name":"Лукойл","river":null,"brand":"Лукойл"}},{"type":"Feature","geometry":{"type":"Point","coordinates":[73.40269,55.0308]},"properties":{"osm_id":1720199138,"kind":"fuel","name":"ТрансСиб","river":null,"brand":null}},{"type":"Feature","geometry":{"type":"Point","coordinates":[73.22892,55.03059]},"properties":{"osm_id":1786926465,"kind":"fuel","name":"Юнигаз","river":null,"brand":null}},{"type":"Feature","geometry":{"type":"Point","coordinates":[74.93292,55.44283]},"properties":{"osm_id":1787124814,"kind":"fuel","name":"Газпромнефть","river":null,"brand":"Газпромнефть"}},{"type":"Feature","geometry":{"type":"Point","coordinates":[73.25346,55.36532]},"properties":{"osm_id":1788204496,"kind":"fuel","name":null,"river":null,"brand":null}},{"type":"Feature","geometry":{"type":"Point","coordinates":[73.35401,54.94274]},"properties":{"osm_id":1805774558,"kind":"slipway","name":null,"river":null,"brand":null}},{"type":"Feature","geometry":{"type":"Point","coordinates":[73.29579,54.94656]},"properties":{"osm_id":1809557293,"kind":"fuel","name":null,"river":null,"brand":null}},{"type":"Feature","geometry":{"type":"Point","coordinates":[71.47122,53.62074]},"properties":{"osm_id":1827535304,"kind":"fuel","name":null,"river":null,"brand":null}},{"type":"Feature","geometry":{"type":"Point","coordinates":[73.37591,54.92761]},"properties":{"osm_id":1828212676,"kind":"fuel","name":"Транссиб","river":null,"brand":null}},{"type":"Feature","geometry":{"type":"Point","coordinates":[73.37576,54.92838]},"properties":{"osm_id":1828213007,"kind":"fuel","name":"Лукойл","river":null,"brand":"Лукойл"}},{"type":"Feature","geometry":{"type":"Point","coordinates":[73.37682,54.92874]},"properties":{"osm_id":1828213024,"kind":"fuel","name":null,"river":null,"brand":null}},{"type":"Feature","geometry":{"type":"Point","coordinates":[73.27239,54.95413]},"properties":{"osm_id":1828360288,"kind":"fuel","name":"Лукойл","river":null,"brand":"Лукойл"}},{"type":"Feature","geometry":{"type":"Point","coordinates":[72.70865,55.15908]},"properties":{"osm_id":1832188881,"kind":"fuel","name":"Газпромнефть","river":null,"brand":"Газпромнефть"}},{"type":"Feature","geometry":{"type":"Point","coordinates":[75.05309,54.84508]},"properties":{"osm_id":1837212872,"kind":"fuel","name":"Газпромнефть","river":null,"brand":"Газпромнефть"}},{"type":"Feature","geometry":{"type":"Point","coordinates":[73.48164,56.39982]},"properties":{"osm_id":1840719312,"kind":"camp_site","name":"Мечта","river":null,"brand":null}},{"type":"Feature","geometry":{"type":"Point","coordinates":[70.43144,54.91903]},"properties":{"osm_id":1869560853,"kind":"fuel","name":null,"river":null,"brand":null}},{"type":"Feature","geometry":{"type":"Point","coordinates":[73.48055,54.98784]},"properties":{"osm_id":1880346906,"kind":"fuel","name":null,"river":null,"brand":null}},{"type":"Feature","geometry":{"type":"Point","coordinates":[73.4785,54.98437]},"properties":{"osm_id":1880347068,"kind":"fuel","name":"Октан","river":null,"brand":"Октан"}},{"type":"Feature","geometry":{"type":"Point","coordinates":[73.12064,55.31352]},"properties":{"osm_id":1907080620,"kind":"fuel","name":null,"river":null,"brand":null}},{"type":"Feature","geometry":{"type":"Point","coordinates":[71.7867,54.36777]},"properties":{"osm_id":1921537848,"kind":"fuel","name":"Газпромнефть","river":null,"brand":"Газпромнефть"}},{"type":"Feature","geometry":{"type":"Point","coordinates":[73.2173,54.99618]},"properties":{"osm_id":1930069093,"kind":"fuel","name":"Топлайн №29","river":null,"brand":null}},{"type":"Feature","geometry":{"type":"Point","coordinates":[73.26931,55.0396]},"properties":{"osm_id":1956104467,"kind":"fuel","name":"ТрансСиб","river":null,"brand":null}},{"type":"Feature","geometry":{"type":"Point","coordinates":[74.68491,54.1706]},"properties":{"osm_id":2049302598,"kind":"fuel","name":"Газпромнефть","river":null,"brand":"Газпромнефть"}},{"type":"Feature","geometry":{"type":"Point","coordinates":[73.17482,54.94816]},"properties":{"osm_id":2135525186,"kind":"fuel","name":"Омсктрансойл","river":null,"brand":null}},{"type":"Feature","geometry":{"type":"Point","coordinates":[73.4997,54.92716]},"properties":{"osm_id":2135551660,"kind":"fuel","name":"Castrol","river":null,"brand":"Сибойл-плюс"}},{"type":"Feature","geometry":{"type":"Point","coordinates":[73.26623,55.04454]},"properties":{"osm_id":2155776066,"kind":"fuel","name":"Сибгаз","river":null,"brand":null}},{"type":"Feature","geometry":{"type":"Point","coordinates":[73.417,54.91959]},"properties":{"osm_id":2196982138,"kind":"fuel","name":"Лукойл","river":null,"brand":"Лукойл"}},{"type":"Feature","geometry":{"type":"Point","coordinates":[73.21991,54.99528]},"properties":{"osm_id":2281730602,"kind":"fuel","name":"АГЗС","river":null,"brand":null}},{"type":"Feature","geometry":{"type":"Point","coordinates":[73.39529,54.91813]},"properties":{"osm_id":2313794173,"kind":"fuel","name":null,"river":null,"brand":null}},{"type":"Feature","geometry":{"type":"Point","coordinates":[73.23185,54.9888]},"properties":{"osm_id":2316640205,"kind":"fuel","name":null,"river":null,"brand":null}},{"type":"Feature","geometry":{"type":"Point","coordinates":[73.47538,54.99206]},"properties":{"osm_id":2340743030,"kind":"fuel","name":"Вектор","river":null,"brand":null}},{"type":"Feature","geometry":{"type":"Point","coordinates":[73.20349,55.0583]},"properties":{"osm_id":2349046337,"kind":"fuel","name":"Газпромнефть","river":null,"brand":"Газпромнефть"}},{"type":"Feature","geometry":{"type":"Point","coordinates":[73.30391,55.05767]},"properties":{"osm_id":2412179125,"kind":"fuel","name":"Газпромнефть","river":null,"brand":"Газпромнефть"}},{"type":"Feature","geometry":{"type":"Point","coordinates":[73.43531,54.89186]},"properties":{"osm_id":2431841985,"kind":"fuel","name":"Автомекс","river":null,"brand":null}},{"type":"Feature","geometry":{"type":"Point","coordinates":[73.43085,54.89389]},"properties":{"osm_id":2431841986,"kind":"fuel","name":"АГЗС","river":null,"brand":null}},{"type":"Feature","geometry":{"type":"Point","coordinates":[70.45726,54.8958]},"properties":{"osm_id":2497668020,"kind":"fuel","name":null,"river":null,"brand":null}},{"type":"Feature","geometry":{"type":"Point","coordinates":[72.42284,54.6263]},"properties":{"osm_id":2517454872,"kind":"fuel","name":"Газпромнефть","river":null,"brand":"Газпромнефть"}},{"type":"Feature","geometry":{"type":"Point","coordinates":[74.58315,55.04532]},"properties":{"osm_id":2526669983,"kind":"fuel","name":"КМС-Ойл","river":null,"brand":null}},{"type":"Feature","geometry":{"type":"Point","coordinates":[73.24002,54.92287]},"properties":{"osm_id":2540891519,"kind":"fuel","name":null,"river":null,"brand":null}},{"type":"Feature","geometry":{"type":"Point","coordinates":[71.87493,53.64397]},"properties":{"osm_id":2885208553,"kind":"fuel","name":null,"river":null,"brand":null}},{"type":"Feature","geometry":{"type":"Point","coordinates":[71.87931,53.64444]},"properties":{"osm_id":2885208556,"kind":"fuel","name":null,"river":null,"brand":null}},{"type":"Feature","geometry":{"type":"Point","coordinates":[73.35108,54.89535]},"properties":{"osm_id":2923299121,"kind":"fuel","name":"Лукойл","river":null,"brand":"Лукойл"}},{"type":"Feature","geometry":{"type":"Point","coordinates":[73.26134,55.04407]},"properties":{"osm_id":2924306167,"kind":"fuel","name":"Лукойл","river":null,"brand":"Лукойл"}},{"type":"Feature","geometry":{"type":"Point","coordinates":[73.25502,55.03515]},"properties":{"osm_id":2934145100,"kind":"fuel","name":"Лукойл","river":null,"brand":"Лукойл"}},{"type":"Feature","geometry":{"type":"Point","coordinates":[73.3708,54.93826]},"properties":{"osm_id":2934145501,"kind":"fuel","name":"Лукойл","river":null,"brand":"Лукойл"}},{"type":"Feature","geometry":{"type":"Point","coordinates":[73.41144,54.94416]},"properties":{"osm_id":2940019178,"kind":"fuel","name":"АГЗС ТрансГаз","river":null,"brand":null}},{"type":"Feature","geometry":{"type":"Point","coordinates":[73.54857,54.18855]},"properties":{"osm_id":2948898042,"kind":"fuel","name":"Метан Моторс","river":null,"brand":null}},{"type":"Feature","geometry":{"type":"Point","coordinates":[71.54779,53.54705]},"properties":{"osm_id":2997152848,"kind":"fuel","name":"АЗС №30 Шельф","river":null,"brand":null}},{"type":"Feature","geometry":{"type":"Point","coordinates":[71.54707,53.54572]},"properties":{"osm_id":2997152849,"kind":"fuel","name":"АЗС№2","river":null,"brand":null}},{"type":"Feature","geometry":{"type":"Point","coordinates":[74.6157,56.09997]},"properties":{"osm_id":3055037700,"kind":"fuel","name":"Газпромнефть","river":null,"brand":"Газпромнефть"}},{"type":"Feature","geometry":{"type":"Point","coordinates":[72.87692,55.23722]},"properties":{"osm_id":3069611524,"kind":"fuel","name":"Лукойл","river":null,"brand":"Лукойл"}},{"type":"Feature","geometry":{"type":"Point","coordinates":[74.77158,56.16507]},"properties":{"osm_id":3226336114,"kind":"weir","name":null,"river":null,"brand":null}},{"type":"Feature","geometry":{"type":"Point","coordinates":[72.87419,54.97587]},"properties":{"osm_id":3344195596,"kind":"fuel","name":null,"river":null,"brand":null}},{"type":"Feature","geometry":{"type":"Point","coordinates":[71.37477,56.03848]},"properties":{"osm_id":3397185863,"kind":"fuel","name":null,"river":null,"brand":null}},{"type":"Feature","geometry":{"type":"Point","coordinates":[73.30026,55.024]},"properties":{"osm_id":3540812977,"kind":"fishing_shop","name":"Ни хвоста, ни чешуи","river":null,"brand":null}},{"type":"Feature","geometry":{"type":"Point","coordinates":[73.15008,54.80712]},"properties":{"osm_id":3556607805,"kind":"fuel","name":null,"river":null,"brand":null}},{"type":"Feature","geometry":{"type":"Point","coordinates":[71.26775,54.9294]},"properties":{"osm_id":3624376695,"kind":"fuel","name":"Газпромнефть","river":null,"brand":"Газпромнефть"}},{"type":"Feature","geometry":{"type":"Point","coordinates":[73.34698,55.01304]},"properties":{"osm_id":3667982694,"kind":"fuel","name":"Лукойл","river":null,"brand":"Лукойл"}},{"type":"Feature","geometry":{"type":"Point","coordinates":[74.60782,55.00204]},"properties":{"osm_id":3676424990,"kind":"fuel","name":"АЗС 2","river":null,"brand":null}},{"type":"Feature","geometry":{"type":"Point","coordinates":[73.26958,55.0292]},"properties":{"osm_id":3878467660,"kind":"fishing_shop","name":"Снасть 55","river":null,"brand":null}},{"type":"Feature","geometry":{"type":"Point","coordinates":[73.27019,55.03162]},"properties":{"osm_id":3931749436,"kind":"fishing_shop","name":"Рыбач'ок","river":null,"brand":null}},{"type":"Feature","geometry":{"type":"Point","coordinates":[72.42282,54.62747]},"properties":{"osm_id":4016223730,"kind":"fuel","name":null,"river":null,"brand":null}},{"type":"Feature","geometry":{"type":"Point","coordinates":[70.44905,54.91926]},"properties":{"osm_id":4059607306,"kind":"fuel","name":"Qazaq Oil","river":null,"brand":"Qazaq Oil"}},{"type":"Feature","geometry":{"type":"Point","coordinates":[73.3105,55.04536]},"properties":{"osm_id":4077870085,"kind":"fuel","name":"Лукойл","river":null,"brand":"Лукойл"}},{"type":"Feature","geometry":{"type":"Point","coordinates":[72.21439,55.87862]},"properties":{"osm_id":4097582111,"kind":"fuel","name":null,"river":null,"brand":null}},{"type":"Feature","geometry":{"type":"Point","coordinates":[72.63372,54.98577]},"properties":{"osm_id":4118716440,"kind":"fuel","name":"Газпромнефть","river":null,"brand":"Газпромнефть"}},{"type":"Feature","geometry":{"type":"Point","coordinates":[71.33709,55.57778]},"properties":{"osm_id":4118776307,"kind":"fuel","name":"Газпромнефть","river":null,"brand":"Газпромнефть"}},{"type":"Feature","geometry":{"type":"Point","coordinates":[73.56841,54.22757]},"properties":{"osm_id":4129954780,"kind":"fuel","name":"Газпромнефть","river":null,"brand":"Газпромнефть"}},{"type":"Feature","geometry":{"type":"Point","coordinates":[73.05994,54.95402]},"properties":{"osm_id":4129954781,"kind":"fuel","name":"Газпромнефть","river":null,"brand":"Газпромнефть"}},{"type":"Feature","geometry":{"type":"Point","coordinates":[73.57864,56.46406]},"properties":{"osm_id":4137809889,"kind":"fuel","name":"Топлайн №38","river":null,"brand":null}},{"type":"Feature","geometry":{"type":"Point","coordinates":[73.38762,54.95091]},"properties":{"osm_id":4160633645,"kind":"fishing_shop","name":"Рыбачка Соня","river":null,"brand":null}},{"type":"Feature","geometry":{"type":"Point","coordinates":[73.49244,54.93842]},"properties":{"osm_id":4188674704,"kind":"fuel","name":null,"river":null,"brand":null}},{"type":"Feature","geometry":{"type":"Point","coordinates":[74.11098,54.36452]},"properties":{"osm_id":4218549861,"kind":"fuel","name":null,"river":null,"brand":null}},{"type":"Feature","geometry":{"type":"Point","coordinates":[72.21128,55.87658]},"properties":{"osm_id":4238805377,"kind":"fuel","name":"Омскоблгаз","river":null,"brand":null}},{"type":"Feature","geometry":{"type":"Point","coordinates":[72.33526,53.6467]},"properties":{"osm_id":5232955249,"kind":"fuel","name":"Шельф","river":null,"brand":null}},{"type":"Feature","geometry":{"type":"Point","coordinates":[70.91603,54.43736]},"properties":{"osm_id":4376987094,"kind":"fuel","name":"АЗС Shelf","river":null,"brand":"Shelf"}},{"type":"Feature","geometry":{"type":"Point","coordinates":[71.79585,54.53951]},"properties":{"osm_id":4359559995,"kind":"camp_site","name":"Палатка под углом","river":null,"brand":null}},{"type":"Feature","geometry":{"type":"Point","coordinates":[71.92251,54.93089]},"properties":{"osm_id":5063767683,"kind":"fuel","name":null,"river":null,"brand":null}},{"type":"Feature","geometry":{"type":"Point","coordinates":[71.79471,54.54697]},"properties":{"osm_id":9481951320,"kind":"camp_site","name":null,"river":null,"brand":null}},{"type":"Feature","geometry":{"type":"Point","coordinates":[71.29906,54.90472]},"properties":{"osm_id":11548586202,"kind":"fuel","name":null,"river":null,"brand":null}},{"type":"Feature","geometry":{"type":"Point","coordinates":[71.26934,54.9288]},"properties":{"osm_id":11645295938,"kind":"fuel","name":null,"river":null,"brand":null}},{"type":"Feature","geometry":{"type":"Point","coordinates":[73.10353,54.87013]},"properties":{"osm_id":4575799679,"kind":"fuel","name":"Опти","river":null,"brand":null}},{"type":"Feature","geometry":{"type":"Point","coordinates":[73.20921,55.03404]},"properties":{"osm_id":5219619947,"kind":"fuel","name":null,"river":null,"brand":null}},{"type":"Feature","geometry":{"type":"Point","coordinates":[73.31363,54.94148]},"properties":{"osm_id":4428739736,"kind":"fuel","name":"Топлайн №32","river":null,"brand":null}},{"type":"Feature","geometry":{"type":"Point","coordinates":[73.34764,54.96301]},"properties":{"osm_id":4435640464,"kind":"fuel","name":"Автогаз","river":null,"brand":null}},{"type":"Feature","geometry":{"type":"Point","coordinates":[73.33478,55.01155]},"properties":{"osm_id":4653763820,"kind":"fishing_shop","name":"Большой улов","river":null,"brand":null}},{"type":"Feature","geometry":{"type":"Point","coordinates":[73.37302,54.88222]},"properties":{"osm_id":5319283211,"kind":"fuel","name":null,"river":null,"brand":null}},{"type":"Feature","geometry":{"type":"Point","coordinates":[73.37285,54.8834]},"properties":{"osm_id":5319283733,"kind":"fuel","name":null,"river":null,"brand":null}},{"type":"Feature","geometry":{"type":"Point","coordinates":[73.27351,55.05317]},"properties":{"osm_id":5896067107,"kind":"fuel","name":null,"river":null,"brand":null}},{"type":"Feature","geometry":{"type":"Point","coordinates":[73.29148,55.05801]},"properties":{"osm_id":6860186120,"kind":"fuel","name":"Газпром","river":null,"brand":null}},{"type":"Feature","geometry":{"type":"Point","coordinates":[73.94102,55.02866]},"properties":{"osm_id":8958847164,"kind":"camp_site","name":null,"river":null,"brand":null}},{"type":"Feature","geometry":{"type":"Point","coordinates":[73.51028,54.99865]},"properties":{"osm_id":9100142729,"kind":"fuel","name":null,"river":null,"brand":null}},{"type":"Feature","geometry":{"type":"Point","coordinates":[73.31473,54.98366]},"properties":{"osm_id":9795266123,"kind":"fishing_shop","name":"Клёвый","river":null,"brand":null}},{"type":"Feature","geometry":{"type":"Point","coordinates":[73.30085,54.97926]},"properties":{"osm_id":9822418522,"kind":"fishing_shop","name":"Изба рыбака","river":null,"brand":null}},{"type":"Feature","geometry":{"type":"Point","coordinates":[73.3548,54.94233]},"properties":{"osm_id":10279771550,"kind":"slipway","name":null,"river":null,"brand":null}},{"type":"Feature","geometry":{"type":"Point","coordinates":[73.33614,55.04073]},"properties":{"osm_id":10564112740,"kind":"fuel","name":"Топлайн","river":null,"brand":"Топлайн"}},{"type":"Feature","geometry":{"type":"Point","coordinates":[73.43916,54.90312]},"properties":{"osm_id":11111209907,"kind":"fuel","name":"Газпром","river":null,"brand":null}},{"type":"Feature","geometry":{"type":"Point","coordinates":[73.45161,54.98987]},"properties":{"osm_id":11459910470,"kind":"fishing_shop","name":"Хищник","river":null,"brand":null}},{"type":"Feature","geometry":{"type":"Point","coordinates":[73.35002,55.00708]},"properties":{"osm_id":12103661829,"kind":"fuel","name":"Топлайн","river":null,"brand":null}},{"type":"Feature","geometry":{"type":"Point","coordinates":[73.26574,55.04973]},"properties":{"osm_id":13009960410,"kind":"fuel","name":"Газпромнефть","river":null,"brand":"Газпромнефть"}},{"type":"Feature","geometry":{"type":"Point","coordinates":[73.61744,54.76095]},"properties":{"osm_id":13479760830,"kind":"fuel","name":"Топлайн","river":null,"brand":"Топлайн"}},{"type":"Feature","geometry":{"type":"Point","coordinates":[73.49278,54.93839]},"properties":{"osm_id":13737511201,"kind":"fuel","name":"Топлайн №33","river":null,"brand":null}},{"type":"Feature","geometry":{"type":"Point","coordinates":[73.3536,54.8789]},"properties":{"osm_id":13737521001,"kind":"fuel","name":"Топлайн №50","river":null,"brand":null}},{"type":"Feature","geometry":{"type":"Point","coordinates":[73.38475,54.95515]},"properties":{"osm_id":14014734202,"kind":"fishing_shop","name":"Зоосервис","river":null,"brand":null}},{"type":"Feature","geometry":{"type":"Point","coordinates":[74.60384,55.05985]},"properties":{"osm_id":8914228018,"kind":"camp_site","name":null,"river":null,"brand":null}},{"type":"Feature","geometry":{"type":"Point","coordinates":[75.25689,55.11138]},"properties":{"osm_id":13727860801,"kind":"fuel","name":"Топлайн №18","river":null,"brand":null}},{"type":"Feature","geometry":{"type":"Point","coordinates":[71.50925,55.99682]},"properties":{"osm_id":5621444866,"kind":"fuel","name":null,"river":null,"brand":null}},{"type":"Feature","geometry":{"type":"Point","coordinates":[71.47268,56.06685]},"properties":{"osm_id":5774254353,"kind":"camp_site","name":"стоянка рыбаков","river":null,"brand":null}},{"type":"Feature","geometry":{"type":"Point","coordinates":[71.5567,56.02041]},"properties":{"osm_id":8952846967,"kind":"camp_site","name":null,"river":null,"brand":null}},{"type":"Feature","geometry":{"type":"Point","coordinates":[71.57053,56.02175]},"properties":{"osm_id":8952857056,"kind":"camp_site","name":null,"river":null,"brand":null}},{"type":"Feature","geometry":{"type":"Point","coordinates":[71.57786,56.02252]},"properties":{"osm_id":8952857978,"kind":"camp_site","name":null,"river":null,"brand":null}},{"type":"Feature","geometry":{"type":"Point","coordinates":[71.64055,56.0736]},"properties":{"osm_id":8953061997,"kind":"camp_site","name":null,"river":null,"brand":null}},{"type":"Feature","geometry":{"type":"Point","coordinates":[71.63818,56.07887]},"properties":{"osm_id":8953075119,"kind":"camp_site","name":null,"river":null,"brand":null}},{"type":"Feature","geometry":{"type":"Point","coordinates":[71.46406,56.03298]},"properties":{"osm_id":8954161762,"kind":"camp_site","name":null,"river":null,"brand":null}},{"type":"Feature","geometry":{"type":"Point","coordinates":[71.57296,56.09038]},"properties":{"osm_id":8954186969,"kind":"camp_site","name":null,"river":null,"brand":null}},{"type":"Feature","geometry":{"type":"Point","coordinates":[72.71686,55.5741]},"properties":{"osm_id":10279658211,"kind":"fuel","name":null,"river":null,"brand":null}},{"type":"Feature","geometry":{"type":"Point","coordinates":[72.93819,55.21516]},"properties":{"osm_id":12943847866,"kind":"fuel","name":"Татнефть","river":null,"brand":"Татнефть"}},{"type":"Feature","geometry":{"type":"Point","coordinates":[72.89628,55.22769]},"properties":{"osm_id":13727804401,"kind":"fuel","name":"Топлайн №51","river":null,"brand":null}},{"type":"Feature","geometry":{"type":"Point","coordinates":[74.19434,55.71326]},"properties":{"osm_id":6467609885,"kind":"camp_site","name":"Одноместное","river":null,"brand":null}},{"type":"Feature","geometry":{"type":"Point","coordinates":[73.46588,55.48528]},"properties":{"osm_id":7006306118,"kind":"camp_site","name":null,"river":null,"brand":null}},{"type":"Feature","geometry":{"type":"Point","coordinates":[73.48563,55.58812]},"properties":{"osm_id":12076943869,"kind":"fuel","name":null,"river":null,"brand":null}},{"type":"Feature","geometry":{"type":"Point","coordinates":[74.63066,55.81647]},"properties":{"osm_id":10238796559,"kind":"fuel","name":null,"river":null,"brand":null}},{"type":"Feature","geometry":{"type":"Point","coordinates":[75.98571,55.23797]},"properties":{"osm_id":8635155728,"kind":"fuel","name":null,"river":null,"brand":null}},{"type":"Feature","geometry":{"type":"Point","coordinates":[74.88663,56.44602]},"properties":{"osm_id":7786828531,"kind":"camp_site","name":null,"river":null,"brand":null}},{"type":"Feature","geometry":{"type":"Point","coordinates":[74.88448,56.44652]},"properties":{"osm_id":7786828532,"kind":"camp_site","name":null,"river":null,"brand":null}},{"type":"Feature","geometry":{"type":"Point","coordinates":[73.37179,54.97149]},"properties":{"osm_id":19980180,"kind":"bridge","name":"Ленинградский мост","river":"Иртыш","brand":null}},{"type":"Feature","geometry":{"type":"Point","coordinates":[73.29906,55.01557]},"properties":{"osm_id":22498741,"kind":"bridge","name":"мост им. 60-летия ВЛКСМ","river":"Иртыш","brand":null}},{"type":"Feature","geometry":{"type":"Point","coordinates":[73.31122,54.86933]},"properties":{"osm_id":27811143,"kind":"bridge","name":"Южный мост","river":"Иртыш","brand":null}},{"type":"Feature","geometry":{"type":"Point","coordinates":[73.34937,54.98973]},"properties":{"osm_id":31171142,"kind":"bridge","name":"мост имени 60-летия Победы","river":"Иртыш","brand":null}},{"type":"Feature","geometry":{"type":"Point","coordinates":[73.34924,54.98983]},"properties":{"osm_id":50429783,"kind":"bridge","name":"мост имени 60-летия Победы","river":"Иртыш","brand":null}},{"type":"Feature","geometry":{"type":"Point","coordinates":[73.05511,55.02782]},"properties":{"osm_id":58698051,"kind":"bridge","name":"Дружино — Мельничное","river":"Камышловка","brand":null}},{"type":"Feature","geometry":{"type":"Point","coordinates":[73.08154,55.04587]},"properties":{"osm_id":58698067,"kind":"bridge","name":null,"river":"Камышловка","brand":null}},{"type":"Feature","geometry":{"type":"Point","coordinates":[73.88807,55.04461]},"properties":{"osm_id":59458980,"kind":"bridge","name":null,"river":"Омь","brand":null}},{"type":"Feature","geometry":{"type":"Point","coordinates":[74.64463,56.07934]},"properties":{"osm_id":76559430,"kind":"bridge","name":null,"river":"Большая","brand":null}},{"type":"Feature","geometry":{"type":"Point","coordinates":[74.08402,55.02824]},"properties":{"osm_id":76561660,"kind":"bridge","name":null,"river":"Омь","brand":null}},{"type":"Feature","geometry":{"type":"Point","coordinates":[74.58919,55.06216]},"properties":{"osm_id":76700146,"kind":"bridge","name":null,"river":"Омь","brand":null}},{"type":"Feature","geometry":{"type":"Point","coordinates":[74.51326,55.07115]},"properties":{"osm_id":76700178,"kind":"bridge","name":null,"river":"Омь","brand":null}},{"type":"Feature","geometry":{"type":"Point","coordinates":[72.40891,56.15767]},"properties":{"osm_id":77475624,"kind":"bridge","name":null,"river":"Оша","brand":null}},{"type":"Feature","geometry":{"type":"Point","coordinates":[72.16531,55.94079]},"properties":{"osm_id":77475654,"kind":"bridge","name":null,"river":"Тюкалка","brand":null}},{"type":"Feature","geometry":{"type":"Point","coordinates":[72.62156,56.19436]},"properties":{"osm_id":77754813,"kind":"bridge","name":null,"river":"Оша","brand":null}},{"type":"Feature","geometry":{"type":"Point","coordinates":[72.19489,55.89489]},"properties":{"osm_id":78614814,"kind":"bridge","name":null,"river":"Тюкалка","brand":null}},{"type":"Feature","geometry":{"type":"Point","coordinates":[74.11123,56.69819]},"properties":{"osm_id":79612857,"kind":"bridge","name":null,"river":"Оша","brand":null}},{"type":"Feature","geometry":{"type":"Point","coordinates":[75.7029,55.55646]},"properties":{"osm_id":79648010,"kind":"bridge","name":null,"river":"Омь","brand":null}},{"type":"Feature","geometry":{"type":"Point","coordinates":[75.28755,55.622]},"properties":{"osm_id":79648031,"kind":"bridge","name":"улица Ленина","river":"Еланка","brand":null}},{"type":"Feature","geometry":{"type":"Point","coordinates":[74.96428,55.42965]},"properties":{"osm_id":80424286,"kind":"bridge","name":null,"river":"Омь","brand":null}},{"type":"Feature","geometry":{"type":"Point","coordinates":[74.94639,55.42538]},"properties":{"osm_id":80424295,"kind":"bridge","name":null,"river":"Омь","brand":null}},{"type":"Feature","geometry":{"type":"Point","coordinates":[75.26486,56.37953]},"properties":{"osm_id":81061058,"kind":"bridge","name":null,"river":"Тара","brand":null}},{"type":"Feature","geometry":{"type":"Point","coordinates":[73.29924,55.0155]},"properties":{"osm_id":82207429,"kind":"bridge","name":"мост им. 60-летия ВЛКСМ","river":"Иртыш","brand":null}},{"type":"Feature","geometry":{"type":"Point","coordinates":[74.94123,56.16603]},"properties":{"osm_id":90832626,"kind":"bridge","name":null,"river":"Артынка","brand":null}},{"type":"Feature","geometry":{"type":"Point","coordinates":[72.19083,55.87614]},"properties":{"osm_id":109200098,"kind":"bridge","name":null,"river":"Тюкалка","brand":null}},{"type":"Feature","geometry":{"type":"Point","coordinates":[72.18874,55.87319]},"properties":{"osm_id":109200102,"kind":"bridge","name":null,"river":"Тюкалка","brand":null}},{"type":"Feature","geometry":{"type":"Point","coordinates":[73.14096,55.04596]},"properties":{"osm_id":117041150,"kind":"bridge","name":null,"river":"Камышловка","brand":null}},{"type":"Feature","geometry":{"type":"Point","coordinates":[73.14221,55.06255]},"properties":{"osm_id":117041213,"kind":"bridge","name":null,"river":"Камышловка","brand":null}},{"type":"Feature","geometry":{"type":"Point","coordinates":[72.95764,55.26928]},"properties":{"osm_id":130508908,"kind":"bridge","name":null,"river":"Авлуха","brand":null}},{"type":"Feature","geometry":{"type":"Point","coordinates":[72.09825,56.00388]},"properties":{"osm_id":136965017,"kind":"bridge","name":null,"river":"Тюкалка","brand":null}},{"type":"Feature","geometry":{"type":"Point","coordinates":[73.14798,56.23925]},"properties":{"osm_id":143948571,"kind":"bridge","name":null,"river":"Оша","brand":null}},{"type":"Feature","geometry":{"type":"Point","coordinates":[73.0834,56.21669]},"properties":{"osm_id":143948573,"kind":"bridge","name":null,"river":"Оша","brand":null}},{"type":"Feature","geometry":{"type":"Point","coordinates":[75.69298,55.56619]},"properties":{"osm_id":162830493,"kind":"bridge","name":null,"river":"Тарка","brand":null}},{"type":"Feature","geometry":{"type":"Point","coordinates":[75.69983,55.57523]},"properties":{"osm_id":162830497,"kind":"bridge","name":"Куйбышев — Венгерово — Нижняя Омка","river":"Тарка","brand":null}},{"type":"Feature","geometry":{"type":"Point","coordinates":[75.63706,55.61472]},"properties":{"osm_id":163785458,"kind":"bridge","name":null,"river":"Тарка","brand":null}},{"type":"Feature","geometry":{"type":"Point","coordinates":[73.50041,56.41587]},"properties":{"osm_id":176934299,"kind":"bridge","name":null,"river":"Оша","brand":null}},{"type":"Feature","geometry":{"type":"Point","coordinates":[73.42705,56.3692]},"properties":{"osm_id":176934302,"kind":"bridge","name":null,"river":"Оша","brand":null}},{"type":"Feature","geometry":{"type":"Point","coordinates":[73.84395,56.5093]},"properties":{"osm_id":178764917,"kind":"bridge","name":null,"river":"Оша","brand":null}},{"type":"Feature","geometry":{"type":"Point","coordinates":[73.77425,56.49092]},"properties":{"osm_id":178764918,"kind":"bridge","name":null,"river":"Оша","brand":null}},{"type":"Feature","geometry":{"type":"Point","coordinates":[75.83569,55.50921]},"properties":{"osm_id":179231823,"kind":"bridge","name":null,"river":"Омь","brand":null}},{"type":"Feature","geometry":{"type":"Point","coordinates":[73.35882,56.32454]},"properties":{"osm_id":182162153,"kind":"bridge","name":null,"river":"Оша","brand":null}},{"type":"Feature","geometry":{"type":"Point","coordinates":[73.31962,56.25992]},"properties":{"osm_id":182162160,"kind":"bridge","name":null,"river":"Оша","brand":null}},{"type":"Feature","geometry":{"type":"Point","coordinates":[71.98049,56.21984]},"properties":{"osm_id":187360235,"kind":"bridge","name":null,"river":"Оша","brand":null}},{"type":"Feature","geometry":{"type":"Point","coordinates":[71.98781,56.45993]},"properties":{"osm_id":201731292,"kind":"bridge","name":null,"river":"Карасук","brand":null}},{"type":"Feature","geometry":{"type":"Point","coordinates":[71.99047,56.22509]},"properties":{"osm_id":201731295,"kind":"bridge","name":null,"river":"Оша","brand":null}},{"type":"Feature","geometry":{"type":"Point","coordinates":[71.52686,56.24751]},"properties":{"osm_id":201731296,"kind":"bridge","name":null,"river":"Горькая","brand":null}},{"type":"Feature","geometry":{"type":"Point","coordinates":[71.81535,56.28699]},"properties":{"osm_id":201731297,"kind":"bridge","name":null,"river":"Карасук","brand":null}},{"type":"Feature","geometry":{"type":"Point","coordinates":[71.58386,56.27742]},"properties":{"osm_id":201731302,"kind":"bridge","name":null,"river":"Челдак","brand":null}},{"type":"Feature","geometry":{"type":"Point","coordinates":[71.58057,56.26262]},"properties":{"osm_id":201731304,"kind":"bridge","name":null,"river":"Челдак","brand":null}},{"type":"Feature","geometry":{"type":"Point","coordinates":[71.57958,56.27259]},"properties":{"osm_id":201731306,"kind":"bridge","name":null,"river":"Челдак","brand":null}},{"type":"Feature","geometry":{"type":"Point","coordinates":[71.91697,56.42579]},"properties":{"osm_id":201731307,"kind":"bridge","name":null,"river":"Карасук","brand":null}},{"type":"Feature","geometry":{"type":"Point","coordinates":[72.97345,56.19746]},"properties":{"osm_id":202515571,"kind":"bridge","name":null,"river":"Оша","brand":null}},{"type":"Feature","geometry":{"type":"Point","coordinates":[73.37661,54.98258]},"properties":{"osm_id":203134903,"kind":"bridge","name":"Юбилейный мост","river":"Омь","brand":null}},{"type":"Feature","geometry":{"type":"Point","coordinates":[73.37924,54.98384]},"properties":{"osm_id":203196555,"kind":"bridge","name":"Комсомольский мост","river":"Омь","brand":null}},{"type":"Feature","geometry":{"type":"Point","coordinates":[73.37938,54.98389]},"properties":{"osm_id":203208420,"kind":"bridge","name":"Комсомольский мост","river":"Омь","brand":null}},{"type":"Feature","geometry":{"type":"Point","coordinates":[74.01123,56.73886]},"properties":{"osm_id":203235250,"kind":"bridge","name":null,"river":"Оша","brand":null}},{"type":"Feature","geometry":{"type":"Point","coordinates":[73.87334,56.53772]},"properties":{"osm_id":203321960,"kind":"bridge","name":null,"river":"Оша","brand":null}},{"type":"Feature","geometry":{"type":"Point","coordinates":[73.95763,56.60969]},"properties":{"osm_id":203321962,"kind":"bridge","name":null,"river":"Оша","brand":null}},{"type":"Feature","geometry":{"type":"Point","coordinates":[71.86275,56.19104]},"properties":{"osm_id":203572787,"kind":"bridge","name":null,"river":"Оша","brand":null}},{"type":"Feature","geometry":{"type":"Point","coordinates":[71.78114,56.25361]},"properties":{"osm_id":203572788,"kind":"bridge","name":null,"river":"Карасук","brand":null}},{"type":"Feature","geometry":{"type":"Point","coordinates":[71.78618,56.27066]},"properties":{"osm_id":203572790,"kind":"bridge","name":null,"river":"Карасук","brand":null}},{"type":"Feature","geometry":{"type":"Point","coordinates":[71.8896,56.39602]},"properties":{"osm_id":203574630,"kind":"bridge","name":null,"river":"Карасук","brand":null}},{"type":"Feature","geometry":{"type":"Point","coordinates":[72.20627,56.22835]},"properties":{"osm_id":203584318,"kind":"bridge","name":null,"river":"Оша","brand":null}},{"type":"Feature","geometry":{"type":"Point","coordinates":[73.81153,56.39999]},"properties":{"osm_id":203702965,"kind":"bridge","name":null,"river":"Юя","brand":null}},{"type":"Feature","geometry":{"type":"Point","coordinates":[73.0817,55.04591]},"properties":{"osm_id":221848992,"kind":"bridge","name":null,"river":"Камышловка","brand":null}},{"type":"Feature","geometry":{"type":"Point","coordinates":[75.21472,56.37291]},"properties":{"osm_id":231701799,"kind":"bridge","name":"улица 30 лет Победы","river":"Сюткес","brand":null}},{"type":"Feature","geometry":{"type":"Point","coordinates":[75.29842,56.40901]},"properties":{"osm_id":234000390,"kind":"bridge","name":null,"river":"Березовка","brand":null}},{"type":"Feature","geometry":{"type":"Point","coordinates":[73.61213,56.4595]},"properties":{"osm_id":237331958,"kind":"bridge","name":null,"river":"Оша","brand":null}},{"type":"Feature","geometry":{"type":"Point","coordinates":[73.67758,56.47498]},"properties":{"osm_id":237502795,"kind":"bridge","name":null,"river":"Оша","brand":null}},{"type":"Feature","geometry":{"type":"Point","coordinates":[73.31122,54.86921]},"properties":{"osm_id":238116853,"kind":"bridge","name":"Южный мост","river":"Иртыш","brand":null}},{"type":"Feature","geometry":{"type":"Point","coordinates":[72.92747,55.01141]},"properties":{"osm_id":243251554,"kind":"bridge","name":"Западный обход г. Омска","river":"Камышловка","brand":null}},{"type":"Feature","geometry":{"type":"Point","coordinates":[72.74668,56.18525]},"properties":{"osm_id":256936738,"kind":"bridge","name":null,"river":"Оша","brand":null}},{"type":"Feature","geometry":{"type":"Point","coordinates":[74.60947,54.26642]},"properties":{"osm_id":263593242,"kind":"bridge","name":null,"river":"Тугочайка","brand":null}},{"type":"Feature","geometry":{"type":"Point","coordinates":[71.18512,56.01155]},"properties":{"osm_id":268900944,"kind":"bridge","name":null,"river":"Яман","brand":null}},{"type":"Feature","geometry":{"type":"Point","coordinates":[74.95656,55.45662]},"properties":{"osm_id":274250208,"kind":"bridge","name":null,"river":"Ачаирка","brand":null}},{"type":"Feature","geometry":{"type":"Point","coordinates":[75.14747,55.50215]},"properties":{"osm_id":274733741,"kind":"bridge","name":null,"river":"Омь","brand":null}},{"type":"Feature","geometry":{"type":"Point","coordinates":[73.12986,55.04413]},"properties":{"osm_id":286377294,"kind":"bridge","name":null,"river":"Камышловка","brand":null}},{"type":"Feature","geometry":{"type":"Point","coordinates":[72.19834,55.87909]},"properties":{"osm_id":306649430,"kind":"bridge","name":"улица Чапаева","river":"Тюкалка","brand":null}},{"type":"Feature","geometry":{"type":"Point","coordinates":[74.61839,56.20623]},"properties":{"osm_id":315587013,"kind":"bridge","name":null,"river":"Бызовка","brand":null}},{"type":"Feature","geometry":{"type":"Point","coordinates":[74.75686,56.16333]},"properties":{"osm_id":316509912,"kind":"bridge","name":null,"river":"Артынка","brand":null}},{"type":"Feature","geometry":{"type":"Point","coordinates":[74.66121,56.00531]},"properties":{"osm_id":327524987,"kind":"bridge","name":null,"river":"Большая","brand":null}},{"type":"Feature","geometry":{"type":"Point","coordinates":[73.49166,55.6117]},"properties":{"osm_id":329906626,"kind":"bridge","name":"Трактовая улица","river":"Саргатка","brand":null}},{"type":"Feature","geometry":{"type":"Point","coordinates":[73.60425,55.64447]},"properties":{"osm_id":329906632,"kind":"bridge","name":null,"river":"Саргатка","brand":null}},{"type":"Feature","geometry":{"type":"Point","coordinates":[73.60586,55.64244]},"properties":{"osm_id":330003097,"kind":"bridge","name":null,"river":"Саргатка","brand":null}},{"type":"Feature","geometry":{"type":"Point","coordinates":[74.19065,55.15062]},"properties":{"osm_id":339729690,"kind":"bridge","name":null,"river":"Тарбуга","brand":null}},{"type":"Feature","geometry":{"type":"Point","coordinates":[74.06503,54.55026]},"properties":{"osm_id":375891393,"kind":"bridge","name":null,"river":"Ачаирка","brand":null}},{"type":"Feature","geometry":{"type":"Point","coordinates":[72.80767,56.19965]},"properties":{"osm_id":447039115,"kind":"bridge","name":null,"river":"Оша","brand":null}},{"type":"Feature","geometry":{"type":"Point","coordinates":[74.06654,56.66966]},"properties":{"osm_id":447223003,"kind":"bridge","name":null,"river":"Оша","brand":null}},{"type":"Feature","geometry":{"type":"Point","coordinates":[74.64922,56.0982]},"properties":{"osm_id":550804104,"kind":"bridge","name":null,"river":"Большая","brand":null}},{"type":"Feature","geometry":{"type":"Point","coordinates":[71.38608,56.04603]},"properties":{"osm_id":591741619,"kind":"bridge","name":null,"river":"Яман","brand":null}},{"type":"Feature","geometry":{"type":"Point","coordinates":[74.54846,56.28058]},"properties":{"osm_id":620261181,"kind":"bridge","name":null,"river":"Бызовка","brand":null}},{"type":"Feature","geometry":{"type":"Point","coordinates":[74.57085,56.25014]},"properties":{"osm_id":620261216,"kind":"bridge","name":null,"river":"Малуха","brand":null}},{"type":"Feature","geometry":{"type":"Point","coordinates":[74.46527,56.51477]},"properties":{"osm_id":621477141,"kind":"bridge","name":null,"river":"Нюхаловка","brand":null}},{"type":"Feature","geometry":{"type":"Point","coordinates":[74.41759,56.44878]},"properties":{"osm_id":621477207,"kind":"bridge","name":null,"river":"Нюхаловка","brand":null}},{"type":"Feature","geometry":{"type":"Point","coordinates":[74.31665,56.3673]},"properties":{"osm_id":624981984,"kind":"bridge","name":null,"river":"Нюхаловка","brand":null}},{"type":"Feature","geometry":{"type":"Point","coordinates":[74.19664,56.33474]},"properties":{"osm_id":625226530,"kind":"bridge","name":null,"river":"Нюхаловка","brand":null}},{"type":"Feature","geometry":{"type":"Point","coordinates":[74.61843,56.52056]},"properties":{"osm_id":625489070,"kind":"bridge","name":null,"river":"Нюхаловка","brand":null}},{"type":"Feature","geometry":{"type":"Point","coordinates":[73.15197,56.24136]},"properties":{"osm_id":665380307,"kind":"bridge","name":null,"river":"Оша","brand":null}},{"type":"Feature","geometry":{"type":"Point","coordinates":[73.85289,56.51721]},"properties":{"osm_id":665746851,"kind":"bridge","name":null,"river":"Оша","brand":null}},{"type":"Feature","geometry":{"type":"Point","coordinates":[74.08036,55.80948]},"properties":{"osm_id":669047183,"kind":"bridge","name":null,"river":"Баловка","brand":null}},{"type":"Feature","geometry":{"type":"Point","coordinates":[75.08381,55.60481]},"properties":{"osm_id":680678668,"kind":"bridge","name":null,"river":"Еланка","brand":null}},{"type":"Feature","geometry":{"type":"Point","coordinates":[75.09223,56.39723]},"properties":{"osm_id":687893122,"kind":"bridge","name":null,"river":"Настасова","brand":null}},{"type":"Feature","geometry":{"type":"Point","coordinates":[73.37651,54.98256]},"properties":{"osm_id":689842755,"kind":"bridge","name":"Юбилейный мост","river":"Омь","brand":null}},{"type":"Feature","geometry":{"type":"Point","coordinates":[72.31328,56.2571]},"properties":{"osm_id":762844262,"kind":"bridge","name":null,"river":"Кумырка","brand":null}},{"type":"Feature","geometry":{"type":"Point","coordinates":[72.19816,56.22705]},"properties":{"osm_id":762844268,"kind":"bridge","name":null,"river":"Оша","brand":null}},{"type":"Feature","geometry":{"type":"Point","coordinates":[74.3196,56.69097]},"properties":{"osm_id":773767338,"kind":"bridge","name":null,"river":"Ибейка","brand":null}},{"type":"Feature","geometry":{"type":"Point","coordinates":[74.31315,56.69131]},"properties":{"osm_id":773767408,"kind":"bridge","name":null,"river":"Ибейка","brand":null}}]}