{"type":"FeatureCollection","meta":{"generated_at":"2026-09-24T02:37:43.425Z","sources":["GBIF occurrence API","iNaturalist API (research grade, CC)"],"license":"Per record (CC0 / CC BY / CC BY-NC); see properties.license"},"features":[{"type":"Feature","geometry":{"type":"Point","coordinates":[73.3985,54.9516]},"properties":{"src":"iNaturalist","species":"Abramis brama","species_ru":"Обыкновенный лещ","date":"2026-05-07","license":"cc-by-nc","user":"igor8737","url":"https://www.inaturalist.org/observations/396845035"}},{"type":"Feature","geometry":{"type":"Point","coordinates":[71.7336,54.4973]},"properties":{"src":"iNaturalist","species":"Perca fluviatilis","species_ru":"Речной окунь","date":"2026-08-24","license":"cc-by-nc","user":"yaroslav_burmatov","url":"https://www.inaturalist.org/observations/395448961"}},{"type":"Feature","geometry":{"type":"Point","coordinates":[73.029,55.3077]},"properties":{"src":"iNaturalist","species":"Abramis brama","species_ru":"Обыкновенный лещ","date":"2026-08-26","license":"cc-by-nc","user":"ver0niknik","url":"https://www.inaturalist.org/observations/394642113"}},{"type":"Feature","geometry":{"type":"Point","coordinates":[72.9899,55.2458]},"properties":{"src":"iNaturalist","species":"Rutilus lacustris","species_ru":"Сибирская плотва","date":"2026-08-25","license":"cc-by-nc","user":"ver0niknik","url":"https://www.inaturalist.org/observations/394373915"}},{"type":"Feature","geometry":{"type":"Point","coordinates":[72.99,55.2458]},"properties":{"src":"iNaturalist","species":"Leuciscus idus","species_ru":"Обыкновенный язь","date":"2026-08-25","license":"cc-by-nc","user":"ver0niknik","url":"https://www.inaturalist.org/observations/394373387"}},{"type":"Feature","geometry":{"type":"Point","coordinates":[74.7662,54.1508]},"properties":{"src":"iNaturalist","species":"Esox lucius","species_ru":"Обыкновенная щука","date":"2026-08-18","license":"cc-by-nc","user":"yaroslav_burmatov","url":"https://www.inaturalist.org/observations/392700380"}},{"type":"Feature","geometry":{"type":"Point","coordinates":[74.7663,54.1508]},"properties":{"src":"iNaturalist","species":"Abramis brama","species_ru":"Обыкновенный лещ","date":"2026-08-18","license":"cc-by-nc","user":"yaroslav_burmatov","url":"https://www.inaturalist.org/observations/392700214"}},{"type":"Feature","geometry":{"type":"Point","coordinates":[74.7663,54.1508]},"properties":{"src":"iNaturalist","species":"Leuciscus idus","species_ru":"Обыкновенный язь","date":"2026-08-18","license":"cc-by-nc","user":"yaroslav_burmatov","url":"https://www.inaturalist.org/observations/392700061"}},{"type":"Feature","geometry":{"type":"Point","coordinates":[74.7663,54.1508]},"properties":{"src":"iNaturalist","species":"Carassius gibelio","species_ru":"Серебряный Карась","date":"2026-08-18","license":"cc-by-nc","user":"yaroslav_burmatov","url":"https://www.inaturalist.org/observations/392699754"}},{"type":"Feature","geometry":{"type":"Point","coordinates":[74.7659,54.1508]},"properties":{"src":"iNaturalist","species":"Alburnus alburnus","species_ru":"Обыкновенная уклейка","date":"2026-08-18","license":"cc-by-nc","user":"yaroslav_burmatov","url":"https://www.inaturalist.org/observations/392699661"}},{"type":"Feature","geometry":{"type":"Point","coordinates":[73.2237,55.2306]},"properties":{"src":"iNaturalist","species":"Perccottus glenii","species_ru":"головешка-ротан","date":"2026-08-15","license":"cc-by-nc","user":"andrey_55","url":"https://www.inaturalist.org/observations/391428876"}},{"type":"Feature","geometry":{"type":"Point","coordinates":[73.3409,55.0026]},"properties":{"src":"iNaturalist","species":"Cyprinus carpio","species_ru":"Карп","date":"2026-08-09","license":"cc-by-nc","user":"ver0niknik","url":"https://www.inaturalist.org/observations/389715651"}},{"type":"Feature","geometry":{"type":"Point","coordinates":[73.3253,55.0084]},"properties":{"src":"iNaturalist","species":"Cyprinus carpio","species_ru":"Карп","date":"2026-08-08","license":"cc-by-nc","user":"ver0niknik","url":"https://www.inaturalist.org/observations/389363692"}},{"type":"Feature","geometry":{"type":"Point","coordinates":[73.8548,53.8107]},"properties":{"src":"iNaturalist","species":"Perccottus glenii","species_ru":"головешка-ротан","date":"2026-07-11","license":"cc-by-nc","user":"tatyana555m","url":"https://www.inaturalist.org/observations/383620984"}},{"type":"Feature","geometry":{"type":"Point","coordinates":[73.1638,55.2629]},"properties":{"src":"iNaturalist","species":"Sander lucioperca","species_ru":"Обыкновенный судак","date":"2025-07-05","license":"cc-by-nc","user":"baluzu","url":"https://www.inaturalist.org/observations/371899876"}},{"type":"Feature","geometry":{"type":"Point","coordinates":[72.8248,56.4502]},"properties":{"src":"iNaturalist","species":"Perccottus glenii","species_ru":"головешка-ротан","date":"2026-05-31","license":"cc-by-nc","user":"vladimir_teplouhov","url":"https://www.inaturalist.org/observations/367374536"}},{"type":"Feature","geometry":{"type":"Point","coordinates":[72.8251,56.4507]},"properties":{"src":"iNaturalist","species":"Carassius carassius","species_ru":"Золотой карась","date":"2026-05-31","license":"cc-by-nc","user":"vladimir_teplouhov","url":"https://www.inaturalist.org/observations/367374364"}},{"type":"Feature","geometry":{"type":"Point","coordinates":[72.8254,56.4501]},"properties":{"src":"iNaturalist","species":"Perccottus glenii","species_ru":"головешка-ротан","date":"2026-05-31","license":"cc-by-nc","user":"vladimir_teplouhov","url":"https://www.inaturalist.org/observations/367368039"}},{"type":"Feature","geometry":{"type":"Point","coordinates":[73.336,54.9997]},"properties":{"src":"iNaturalist","species":"Perca fluviatilis","species_ru":"Речной окунь","date":"2025-08-26","license":"cc-by-nc","user":"ver0niknik","url":"https://www.inaturalist.org/observations/309208592"}},{"type":"Feature","geometry":{"type":"Point","coordinates":[73.3357,55.0002]},"properties":{"src":"iNaturalist","species":"Abramis brama","species_ru":"Обыкновенный лещ","date":"2025-08-26","license":"cc-by-nc","user":"ver0niknik","url":"https://www.inaturalist.org/observations/309208466"}},{"type":"Feature","geometry":{"type":"Point","coordinates":[73.5831,56.0809]},"properties":{"src":"iNaturalist","species":"Carassius carassius","species_ru":"Золотой карась","date":"2025-08-17","license":"cc-by-nc","user":"docentozavr","url":"https://www.inaturalist.org/observations/307457620"}},{"type":"Feature","geometry":{"type":"Point","coordinates":[72.8241,56.4499]},"properties":{"src":"iNaturalist","species":"Rhynchocypris percnurus","species_ru":"Озёрный гольян","date":"2025-06-01","license":"cc-by-nc","user":"vladimir_teplouhov","url":"https://www.inaturalist.org/observations/285993950"}},{"type":"Feature","geometry":{"type":"Point","coordinates":[72.9795,54.4941]},"properties":{"src":"iNaturalist","species":"Carassius gibelio","species_ru":"Серебряный Карась","date":"2025-05-02","license":"cc-by-nc","user":"yaroslav_burmatov","url":"https://www.inaturalist.org/observations/280529139"}},{"type":"Feature","geometry":{"type":"Point","coordinates":[72.9794,54.4941]},"properties":{"src":"iNaturalist","species":"Perccottus glenii","species_ru":"головешка-ротан","date":"2025-05-02","license":"cc-by-nc","user":"yaroslav_burmatov","url":"https://www.inaturalist.org/observations/280529138"}},{"type":"Feature","geometry":{"type":"Point","coordinates":[74.9017,55.1557]},"properties":{"src":"iNaturalist","species":"Perca fluviatilis","species_ru":"Речной окунь","date":"2023-06-10","license":"cc-by-nc","user":"ver0niknik","url":"https://www.inaturalist.org/observations/260682836"}},{"type":"Feature","geometry":{"type":"Point","coordinates":[73.5484,55.5716]},"properties":{"src":"iNaturalist","species":"Rutilus lacustris","species_ru":"Сибирская плотва","date":"2023-05-27","license":"cc-by-nc","user":"ver0niknik","url":"https://www.inaturalist.org/observations/260682834"}},{"type":"Feature","geometry":{"type":"Point","coordinates":[73.5619,55.03]},"properties":{"src":"iNaturalist","species":"Leuciscus idus","species_ru":"Обыкновенный язь","date":"2022-08-13","license":"cc-by-nc","user":"ver0niknik","url":"https://www.inaturalist.org/observations/260482031"}},{"type":"Feature","geometry":{"type":"Point","coordinates":[73.2242,55.198]},"properties":{"src":"iNaturalist","species":"Perccottus glenii","species_ru":"головешка-ротан","date":"2020-08-08","license":"cc-by-nc","user":"ver0niknik","url":"https://www.inaturalist.org/observations/260130574"}},{"type":"Feature","geometry":{"type":"Point","coordinates":[73.5475,55.0254]},"properties":{"src":"iNaturalist","species":"Perca fluviatilis","species_ru":"Речной окунь","date":"2020-06-21","license":"cc-by-nc","user":"ver0niknik","url":"https://www.inaturalist.org/observations/260130562"}},{"type":"Feature","geometry":{"type":"Point","coordinates":[73.2221,55.1987]},"properties":{"src":"iNaturalist","species":"Carassius gibelio","species_ru":"Серебряный Карась","date":"2020-05-31","license":"cc-by-nc","user":"ver0niknik","url":"https://www.inaturalist.org/observations/260130560"}},{"type":"Feature","geometry":{"type":"Point","coordinates":[75.2536,56.3965]},"properties":{"src":"iNaturalist","species":"Esox lucius","species_ru":"Обыкновенная щука","date":"2006-08-02","license":"cc-by","user":"sknyazev","url":"https://www.inaturalist.org/observations/254073480"}},{"type":"Feature","geometry":{"type":"Point","coordinates":[75.2961,56.3598]},"properties":{"src":"iNaturalist","species":"Rutilus lacustris","species_ru":"Сибирская плотва","date":"2006-05-28","license":"cc-by","user":"sknyazev","url":"https://www.inaturalist.org/observations/254073479"}},{"type":"Feature","geometry":{"type":"Point","coordinates":[75.2541,56.3965]},"properties":{"src":"iNaturalist","species":"Perca fluviatilis","species_ru":"Речной окунь","date":"2006-05-28","license":"cc-by","user":"sknyazev","url":"https://www.inaturalist.org/observations/254073476"}},{"type":"Feature","geometry":{"type":"Point","coordinates":[75.2981,56.4126]},"properties":{"src":"iNaturalist","species":"Tinca tinca","species_ru":"Линь","date":"2006-05-28","license":"cc-by","user":"sknyazev","url":"https://www.inaturalist.org/observations/254073475"}},{"type":"Feature","geometry":{"type":"Point","coordinates":[75.2959,56.3598]},"properties":{"src":"iNaturalist","species":"Abramis brama","species_ru":"Обыкновенный лещ","date":"2006-06-18","license":"cc-by","user":"sknyazev","url":"https://www.inaturalist.org/observations/254073473"}},{"type":"Feature","geometry":{"type":"Point","coordinates":[75.1975,56.39]},"properties":{"src":"iNaturalist","species":"Carassius carassius","species_ru":"Золотой карась","date":"2006-05-28","license":"cc-by","user":"sknyazev","url":"https://www.inaturalist.org/observations/254073472"}},{"type":"Feature","geometry":{"type":"Point","coordinates":[75.2957,56.3599]},"properties":{"src":"iNaturalist","species":"Gymnocephalus cernua","species_ru":"Обыкновенный ёрш","date":"2005-09-26","license":"cc-by","user":"sknyazev","url":"https://www.inaturalist.org/observations/254073470"}},{"type":"Feature","geometry":{"type":"Point","coordinates":[75.2985,56.4108]},"properties":{"src":"iNaturalist","species":"Leucaspius delineatus","species_ru":"Верховка","date":"2006-08-12","license":"cc-by","user":"sknyazev","url":"https://www.inaturalist.org/observations/254073467"}},{"type":"Feature","geometry":{"type":"Point","coordinates":[73.0323,55.3056]},"properties":{"src":"iNaturalist","species":"Leuciscus idus","species_ru":"Обыкновенный язь","date":"2024-08-18","license":"cc-by-nc","user":"ver0niknik","url":"https://www.inaturalist.org/observations/236453156"}},{"type":"Feature","geometry":{"type":"Point","coordinates":[73.7554,54.6651]},"properties":{"src":"iNaturalist","species":"Carassius gibelio","species_ru":"Серебряный Карась","date":"2024-07-06","license":"cc-by-nc","user":"ver0niknik","url":"https://www.inaturalist.org/observations/227485248"}},{"type":"Feature","geometry":{"type":"Point","coordinates":[73.7554,54.6651]},"properties":{"src":"iNaturalist","species":"Perca fluviatilis","species_ru":"Речной окунь","date":"2024-07-06","license":"cc-by-nc","user":"ver0niknik","url":"https://www.inaturalist.org/observations/227485187"}},{"type":"Feature","geometry":{"type":"Point","coordinates":[73.7554,54.6651]},"properties":{"src":"iNaturalist","species":"Rutilus lacustris","species_ru":"Сибирская плотва","date":"2024-07-06","license":"cc-by-nc","user":"ver0niknik","url":"https://www.inaturalist.org/observations/227455449"}},{"type":"Feature","geometry":{"type":"Point","coordinates":[72.7676,56.5191]},"properties":{"src":"iNaturalist","species":"Perccottus glenii","species_ru":"головешка-ротан","date":"2024-07-04","license":"cc-by-nc","user":"vladimir_teplouhov","url":"https://www.inaturalist.org/observations/227031585"}},{"type":"Feature","geometry":{"type":"Point","coordinates":[72.7675,56.5192]},"properties":{"src":"iNaturalist","species":"Rhynchocypris percnurus","species_ru":"Озёрный гольян","date":"2024-07-04","license":"cc-by-nc","user":"vladimir_teplouhov","url":"https://www.inaturalist.org/observations/227030285"}},{"type":"Feature","geometry":{"type":"Point","coordinates":[71.8075,56.2657]},"properties":{"src":"iNaturalist","species":"Carassius gibelio","species_ru":"Серебряный Карась","date":"2023-09-08","license":"cc-by-nc","user":"vzandreevna","url":"https://www.inaturalist.org/observations/182286253"}},{"type":"Feature","geometry":{"type":"Point","coordinates":[73.2226,55.0397]},"properties":{"src":"iNaturalist","species":"Perccottus glenii","species_ru":"головешка-ротан","date":"2023-04-14","license":"cc-by-nc","user":"vzandreevna","url":"https://www.inaturalist.org/observations/182199608"}},{"type":"Feature","geometry":{"type":"Point","coordinates":[74.895,55.1581]},"properties":{"src":"iNaturalist","species":"Gobio sibiricus","species_ru":"Среднеазиатский пескарь","date":"2023-06-10","license":"cc-by-nc","user":"ver0niknik","url":"https://www.inaturalist.org/observations/167316773"}},{"type":"Feature","geometry":{"type":"Point","coordinates":[72.7669,56.5188]},"properties":{"src":"iNaturalist","species":"Carassius carassius","species_ru":"Золотой карась","date":"2022-08-06","license":"cc-by-nc","user":"vladimir_teplouhov","url":"https://www.inaturalist.org/observations/130205280"}},{"type":"Feature","geometry":{"type":"Point","coordinates":[71.8004,54.5666]},"properties":{"src":"iNaturalist","species":"Perccottus glenii","species_ru":"головешка-ротан","date":"2022-05-09","license":"cc-by","user":"sknyazev","url":"https://www.inaturalist.org/observations/116290172"}},{"type":"Feature","geometry":{"type":"Point","coordinates":[72.73,56.3854]},"properties":{"src":"iNaturalist","species":"Perccottus glenii","species_ru":"головешка-ротан","date":"2021-07-31","license":"cc-by-nc","user":"vladimir_teplouhov","url":"https://www.inaturalist.org/observations/89635366"}},{"type":"Feature","geometry":{"type":"Point","coordinates":[72.7356,56.3864]},"properties":{"src":"iNaturalist","species":"Carassius gibelio","species_ru":"Серебряный Карась","date":"2021-08-01","license":"cc-by-nc","user":"vladimir_teplouhov","url":"https://www.inaturalist.org/observations/89476314"}},{"type":"Feature","geometry":{"type":"Point","coordinates":[73.65,55.04]},"properties":{"src":"GBIF","species":"Perca fluviatilis","date":"1904-08-23","license":"http://creativecommons.org/licenses/by/4.0/legalcode","dataset":"Pisces (Luomus)","url":"https://www.gbif.org/occurrence/3436753063"}},{"type":"Feature","geometry":{"type":"Point","coordinates":[73.4,55]},"properties":{"src":"GBIF","species":"Perca fluviatilis","date":"1904-08-17","license":"http://creativecommons.org/licenses/by/4.0/legalcode","dataset":"Pisces (Luomus)","url":"https://www.gbif.org/occurrence/3436753306"}},{"type":"Feature","geometry":{"type":"Point","coordinates":[74.5,56.5]},"properties":{"src":"GBIF","species":"Decodon Günther, 1861","date":null,"license":"http://creativecommons.org/licenses/by-nc/4.0/legalcode","dataset":"Ekaterina Village, Abrosimovka River","url":"https://www.gbif.org/occurrence/1698174576"}},{"type":"Feature","geometry":{"type":"Point","coordinates":[73.45,55.4667]},"properties":{"src":"GBIF","species":"Decodon Günther, 1861","date":null,"license":"http://creativecommons.org/licenses/by-nc/4.0/legalcode","dataset":"Lezhanka Village, Irtysh River, Sample 2","url":"https://www.gbif.org/occurrence/1698178595"}},{"type":"Feature","geometry":{"type":"Point","coordinates":[73.0167,55.2167]},"properties":{"src":"GBIF","species":"Decodon Günther, 1861","date":null,"license":"http://creativecommons.org/licenses/by-nc/4.0/legalcode","dataset":"Chernoluch Village, Irtysh River, Lignite","url":"https://www.gbif.org/occurrence/1698178923"}},{"type":"Feature","geometry":{"type":"Point","coordinates":[74.4,55.75]},"properties":{"src":"GBIF","species":"Decodon Günther, 1861","date":null,"license":"http://creativecommons.org/licenses/by-nc/4.0/legalcode","dataset":"Isakovka Village, Irtysh River","url":"https://www.gbif.org/occurrence/1698181226"}},{"type":"Feature","geometry":{"type":"Point","coordinates":[74.7333,56.1167]},"properties":{"src":"GBIF","species":"Decodon Günther, 1861","date":null,"license":"http://creativecommons.org/licenses/by-nc/4.0/legalcode","dataset":"Kartashevo Sample 1","url":"https://www.gbif.org/occurrence/1698181552"}},{"type":"Feature","geometry":{"type":"Point","coordinates":[72.9899,55.2458]},"properties":{"src":"GBIF","species":"Rutilus rutilus","date":"2026-08-25","license":"http://creativecommons.org/licenses/by-nc/4.0/legalcode","dataset":"iNaturalist research-grade observations","url":"https://www.gbif.org/occurrence/6518640898"}},{"type":"Feature","geometry":{"type":"Point","coordinates":[73.7554,54.6651]},"properties":{"src":"GBIF","species":"Rutilus rutilus","date":"2024-07-06","license":"http://creativecommons.org/licenses/by-nc/4.0/legalcode","dataset":"iNaturalist research-grade observations","url":"https://www.gbif.org/occurrence/4908681661"}},{"type":"Feature","geometry":{"type":"Point","coordinates":[73.5484,55.5716]},"properties":{"src":"GBIF","species":"Rutilus rutilus","date":"2023-05-27","license":"http://creativecommons.org/licenses/by-nc/4.0/legalcode","dataset":"iNaturalist research-grade observations","url":"https://www.gbif.org/occurrence/5063893326"}},{"type":"Feature","geometry":{"type":"Point","coordinates":[75.2961,56.3598]},"properties":{"src":"GBIF","species":"Rutilus rutilus","date":"2006-05-28","license":"http://creativecommons.org/licenses/by/4.0/legalcode","dataset":"iNaturalist research-grade observations","url":"https://www.gbif.org/occurrence/5007326920"}},{"type":"Feature","geometry":{"type":"Point","coordinates":[73.65,55.04]},"properties":{"src":"GBIF","species":"Rutilus rutilus","date":"1904-07-24","license":"http://creativecommons.org/licenses/by/4.0/legalcode","dataset":"Pisces (Luomus)","url":"https://www.gbif.org/occurrence/3436749781"}},{"type":"Feature","geometry":{"type":"Point","coordinates":[73.4,55]},"properties":{"src":"GBIF","species":"Gobio gobio","date":"1904-07","license":"http://creativecommons.org/licenses/by/4.0/legalcode","dataset":"Pisces (Luomus)","url":"https://www.gbif.org/occurrence/3436750459"}},{"type":"Feature","geometry":{"type":"Point","coordinates":[73.4,55]},"properties":{"src":"GBIF","species":"Alburnus alburnus","date":"1904-08-17","license":"http://creativecommons.org/licenses/by/4.0/legalcode","dataset":"Pisces (Luomus)","url":"https://www.gbif.org/occurrence/3436750131"}},{"type":"Feature","geometry":{"type":"Point","coordinates":[73.65,55.04]},"properties":{"src":"GBIF","species":"Gobio gobio","date":"1904-08-23","license":"http://creativecommons.org/licenses/by/4.0/legalcode","dataset":"Pisces (Luomus)","url":"https://www.gbif.org/occurrence/3436750432"}},{"type":"Feature","geometry":{"type":"Point","coordinates":[73.65,55.04]},"properties":{"src":"GBIF","species":"Cobitis taenia","date":"1904-08-18","license":"http://creativecommons.org/licenses/by/4.0/legalcode","dataset":"Pisces (Luomus)","url":"https://www.gbif.org/occurrence/3436753469"}},{"type":"Feature","geometry":{"type":"Point","coordinates":[73.3667,55]},"properties":{"src":"GBIF","species":"Cobitis sibirica","date":"1904","license":"http://creativecommons.org/licenses/by/4.0/legalcode","dataset":null,"url":"https://www.gbif.org/occurrence/62078"}},{"type":"Feature","geometry":{"type":"Point","coordinates":[73.4,55]},"properties":{"src":"GBIF","species":"Cobitis sibirica","date":"1904-01-07","license":"http://creativecommons.org/licenses/by/4.0/legalcode","dataset":"Pisces (Luomus)","url":"https://www.gbif.org/occurrence/3436753454"}},{"type":"Feature","geometry":{"type":"Point","coordinates":[73.4,55]},"properties":{"src":"GBIF","species":"Salmonidae","date":"1904-06","license":"http://creativecommons.org/licenses/by/4.0/legalcode","dataset":"Pisces (Luomus)","url":"https://www.gbif.org/occurrence/3436749536"}}]}