{"type":"FeatureCollection","meta":{"generated_at":"2026-09-22T11:06:26.701Z","sources":["Приказ Минсельхоза № 646, Приложение № 1 (ред. 08.06.2026)"],"license":"Нормативный акт — общественное достояние","notes":"Геометрия восстановлена из координат границ; approx=true"},"features":[{"type":"Feature","geometry":{"type":"Polygon","coordinates":[[[74.6282,56.58918],[74.6292,56.58945],[74.63009,56.58983],[74.63083,56.5903],[74.63139,56.59083],[74.63175,56.59141],[74.63189,56.59203],[74.63182,56.59264],[74.63153,56.59324],[74.63103,56.59379],[74.63034,56.59428],[74.6295,56.59469],[74.62853,56.59499],[74.62747,56.59519],[74.62636,56.59527],[74.62524,56.59523],[74.62416,56.59507],[74.61816,56.59382],[74.61716,56.59355],[74.61627,56.59317],[74.61553,56.59271],[74.61498,56.59217],[74.61462,56.59159],[74.61447,56.59098],[74.61455,56.59036],[74.61484,56.58976],[74.61534,56.58921],[74.61602,56.58872],[74.61686,56.58832],[74.61783,56.58801],[74.6189,56.58781],[74.62001,56.58773],[74.62113,56.58777],[74.62221,56.58793],[74.6282,56.58918]]]},"properties":{"id":"pit-51","name":"Новологинская яма","kind":"зимовальная яма","water":"Иртыш","active_from":"11-15","active_to":"04-20","description":"ниже по течению д. Секменево (Тарский район). Верхняя и нижняя границы по приказу; полоса ±350 м вокруг прямой между ними — ориентир, не точная граница.","source":"Приказ Минсельхоза № 646, Приложение № 1, Омская область","provenance":"official","approx":true,"no":51,"district":"Тарский район","landmark":"ниже по течению д. Секменево","upper":[74.62018611111111,56.59087777777778],"lower":[74.62617777777777,56.592125]}},{"type":"Feature","geometry":{"type":"Polygon","coordinates":[[[74.658,56.60538],[74.65907,56.60556],[74.66006,56.60585],[74.66093,56.60624],[74.66164,56.60672],[74.66217,56.60726],[74.6625,56.60785],[74.66261,56.60846],[74.66251,56.60908],[74.66218,56.60967],[74.66166,56.61021],[74.66095,56.61069],[74.66008,56.61109],[74.6591,56.61138],[74.65802,56.61156],[74.65691,56.61162],[74.65579,56.61156],[74.64016,56.60987],[74.63909,56.60969],[74.6381,56.6094],[74.63723,56.60901],[74.63652,56.60853],[74.63598,56.60799],[74.63566,56.6074],[74.63554,56.60679],[74.63565,56.60617],[74.63598,56.60558],[74.6365,56.60504],[74.63721,56.60456],[74.63808,56.60417],[74.63906,56.60388],[74.64014,56.60369],[74.64125,56.60363],[74.64237,56.60369],[74.658,56.60538]]]},"properties":{"id":"pit-52","name":"Старологиновская яма","kind":"зимовальная яма","water":"Иртыш","active_from":"11-15","active_to":"04-20","description":"выше по течению д. Старологиново (Тарский район). Верхняя и нижняя границы по приказу; полоса ±350 м вокруг прямой между ними — ориентир, не точная граница.","source":"Приказ Минсельхоза № 646, Приложение № 1, Омская область","provenance":"official","approx":true,"no":52,"district":"Тарский район","landmark":"выше по течению д. Старологиново","upper":[74.6412638888889,56.60678055555556],"lower":[74.65689444444445,56.608472222222225]}},{"type":"Feature","geometry":{"type":"Polygon","coordinates":[[[74.6638,56.56777],[74.66283,56.56746],[74.662,56.56705],[74.66133,56.56655],[74.66084,56.566],[74.66056,56.5654],[74.6605,56.56478],[74.66066,56.56417],[74.66103,56.56359],[74.6616,56.56306],[74.66235,56.5626],[74.66324,56.56223],[74.66425,56.56196],[74.66534,56.56181],[74.66646,56.56177],[74.66756,56.56186],[74.66862,56.56207],[74.6762,56.56401],[74.67716,56.56432],[74.678,56.56474],[74.67867,56.56523],[74.67915,56.56579],[74.67943,56.56638],[74.67949,56.567],[74.67934,56.56761],[74.67897,56.56819],[74.6784,56.56872],[74.67765,56.56918],[74.67675,56.56955],[74.67574,56.56982],[74.67466,56.56997],[74.67354,56.57001],[74.67243,56.56992],[74.67137,56.56972],[74.6638,56.56777]]]},"properties":{"id":"pit-53","name":"Старологиновская 2 яма","kind":"зимовальная яма","water":"Иртыш","active_from":"11-15","active_to":"04-20","description":"выше по течению д. Терехово (Тарский район). Верхняя и нижняя границы по приказу; полоса ±350 м вокруг прямой между ними — ориентир, не точная граница.","source":"Приказ Минсельхоза № 646, Приложение № 1, Омская область","provenance":"official","approx":true,"no":53,"district":"Тарский район","landmark":"выше по течению д. Терехово","upper":[74.67378611111111,56.56686388888889],"lower":[74.66620833333334,56.56491944444444]}},{"type":"Feature","geometry":{"type":"Polygon","coordinates":[[[74.66395,56.53634],[74.66502,56.53652],[74.66601,56.53681],[74.66687,56.5372],[74.66758,56.53768],[74.66811,56.53823],[74.66844,56.53882],[74.66854,56.53943],[74.66844,56.54004],[74.66811,56.54063],[74.66758,56.54118],[74.66687,56.54166],[74.66601,56.54205],[74.66502,56.54234],[74.66395,56.54252],[74.66284,56.54258],[74.66172,56.54252],[74.64577,56.54077],[74.6447,56.54059],[74.64371,56.5403],[74.64285,56.53991],[74.64214,56.53943],[74.64161,56.53888],[74.64129,56.53829],[74.64118,56.53768],[74.64129,56.53707],[74.64161,56.53648],[74.64214,56.53593],[74.64285,56.53545],[74.64372,56.53506],[74.6447,56.53477],[74.64577,56.53459],[74.64689,56.53453],[74.648,56.53459],[74.66395,56.53634]]]},"properties":{"id":"pit-54","name":"Шуевская яма","kind":"зимовальная яма","water":"Иртыш","active_from":"11-15","active_to":"04-20","description":"выше по течению д. Шуево (Большереченский район). Верхняя и нижняя границы по приказу; полоса ±350 м вокруг прямой между ними — ориентир, не точная граница.","source":"Приказ Минсельхоза № 646, Приложение № 1, Омская область","provenance":"official","approx":true,"no":54,"district":"Большереченский район","landmark":"выше по течению д. Шуево","upper":[74.64688611111112,56.53768055555555],"lower":[74.66283611111112,56.539430555555555]}},{"type":"Feature","geometry":{"type":"Polygon","coordinates":[[[74.64186,56.56053],[74.64106,56.56009],[74.64044,56.55958],[74.64001,56.55901],[74.63979,56.55841],[74.63979,56.55779],[74.64001,56.55718],[74.64044,56.55661],[74.64106,56.5561],[74.64185,56.55566],[74.64278,56.55532],[74.64381,56.55508],[74.64491,56.55496],[74.64603,56.55496],[74.64713,56.55508],[74.64816,56.55532],[74.64909,56.55566],[74.65572,56.55865],[74.65651,56.55908],[74.65713,56.5596],[74.65756,56.56017],[74.65778,56.56077],[74.65778,56.56139],[74.65757,56.56199],[74.65714,56.56256],[74.65652,56.56308],[74.65573,56.56351],[74.6548,56.56386],[74.65376,56.56409],[74.65266,56.56422],[74.65154,56.56422],[74.65044,56.5641],[74.64941,56.56386],[74.64848,56.56352],[74.64186,56.56053]]]},"properties":{"id":"pit-55","name":"Тереховская яма","kind":"зимовальная яма","water":"Иртыш","active_from":"11-15","active_to":"04-20","description":"выше по течению д. Терехово (Большереченский район). Верхняя и нижняя границы по приказу; полоса ±350 м вокруг прямой между ними — ориентир, не точная граница.","source":"Приказ Минсельхоза № 646, Приложение № 1, Омская область","provenance":"official","approx":true,"no":55,"district":"Большереченский район","landmark":"выше по течению д. Терехово","upper":[74.65209722222222,56.56108333333333],"lower":[74.645475,56.55809444444444]}},{"type":"Feature","geometry":{"type":"Polygon","coordinates":[[[74.71343,56.53177],[74.71454,56.53167],[74.71566,56.5317],[74.71674,56.53184],[74.71776,56.5321],[74.71867,56.53246],[74.71943,56.53291],[74.72001,56.53344],[74.7204,56.53402],[74.72057,56.53463],[74.72053,56.53524],[74.72027,56.53585],[74.7198,56.53641],[74.71914,56.5369],[74.71832,56.53732],[74.71737,56.53765],[74.71632,56.53786],[74.70801,56.53905],[74.70691,56.53915],[74.70579,56.53913],[74.7047,56.53898],[74.70369,56.53872],[74.70278,56.53836],[74.70202,56.53791],[74.70144,56.53738],[74.70105,56.5368],[74.70087,56.53619],[74.70092,56.53558],[74.70118,56.53498],[74.70165,56.53442],[74.70231,56.53392],[74.70313,56.5335],[74.70408,56.53318],[74.70513,56.53296],[74.71343,56.53177]]]},"properties":{"id":"pit-56","name":"Шуевская 2 яма","kind":"зимовальная яма","water":"Иртыш","active_from":"11-15","active_to":"04-20","description":"ниже по течению д. Шуево (Большереченский район). Верхняя и нижняя границы по приказу; полоса ±350 м вокруг прямой между ними — ориентир, не точная граница.","source":"Приказ Минсельхоза № 646, Приложение № 1, Омская область","provenance":"official","approx":true,"no":56,"district":"Большереченский район","landmark":"ниже по течению д. Шуево","upper":[74.70657222222222,56.536008333333335],"lower":[74.714875,56.534813888888884]}},{"type":"Feature","geometry":{"type":"Polygon","coordinates":[[[74.70729,56.40553],[74.70755,56.40493],[74.70802,56.40437],[74.70868,56.40387],[74.7095,56.40346],[74.71045,56.40313],[74.7115,56.40292],[74.7126,56.40282],[74.71371,56.40285],[74.7148,56.40299],[74.71581,56.40325],[74.71671,56.40362],[74.71747,56.40407],[74.71805,56.4046],[74.71843,56.40517],[74.71861,56.40578],[74.71856,56.4064],[74.71732,56.41135],[74.71705,56.41195],[74.71659,56.41251],[74.71593,56.41301],[74.71511,56.41343],[74.71416,56.41375],[74.71311,56.41397],[74.71201,56.41406],[74.7109,56.41404],[74.70981,56.41389],[74.7088,56.41363],[74.7079,56.41327],[74.70714,56.41282],[74.70656,56.41229],[74.70617,56.41171],[74.706,56.4111],[74.70605,56.41048],[74.70729,56.40553]]]},"properties":{"id":"pit-57","name":"Изюкская яма","kind":"зимовальная яма","water":"Иртыш","active_from":"11-15","active_to":"04-20","description":"ниже по течению с. Евгащино (Большереченский район). Верхняя и нижняя границы по приказу; полоса ±350 м вокруг прямой между ними — ориентир, не точная граница.","source":"Приказ Минсельхоза № 646, Приложение № 1, Омская область","provenance":"official","approx":true,"no":57,"district":"Большереченский район","landmark":"ниже по течению с. Евгащино","upper":[74.71168055555556,56.410919444444446],"lower":[74.71292777777778,56.405966666666664]}},{"type":"Feature","geometry":{"type":"Polygon","coordinates":[[[74.7301,56.39382],[74.73121,56.39386],[74.73229,56.39401],[74.73329,56.39428],[74.73418,56.39465],[74.73493,56.39511],[74.7355,56.39564],[74.73586,56.39622],[74.73602,56.39683],[74.73596,56.39745],[74.73568,56.39805],[74.7352,56.3986],[74.73453,56.3991],[74.7337,56.39951],[74.73274,56.39982],[74.73169,56.40003],[74.73058,56.40011],[74.71729,56.40043],[74.71618,56.40039],[74.7151,56.40024],[74.71409,56.39997],[74.7132,56.3996],[74.71246,56.39914],[74.71189,56.39861],[74.71152,56.39803],[74.71136,56.39742],[74.71143,56.3968],[74.71171,56.3962],[74.71219,56.39565],[74.71286,56.39515],[74.71369,56.39474],[74.71465,56.39443],[74.7157,56.39423],[74.71681,56.39414],[74.7301,56.39382]]]},"properties":{"id":"pit-58","name":"Мешковская яма","kind":"зимовальная яма","water":"Иртыш","active_from":"11-15","active_to":"04-20","description":"ниже по течению с. Евгащино (Большереченский район). Верхняя и нижняя границы по приказу; полоса ±350 м вокруг прямой между ними — ориентир, не точная граница.","source":"Приказ Минсельхоза № 646, Приложение № 1, Омская область","provenance":"official","approx":true,"no":58,"district":"Большереченский район","landmark":"ниже по течению с. Евгащино","upper":[74.71704722222222,56.397283333333334],"lower":[74.7303388888889,56.396969444444444]}},{"type":"Feature","geometry":{"type":"Polygon","coordinates":[[[74.77012,56.40245],[74.77123,56.40241],[74.77233,56.40249],[74.77339,56.40269],[74.77436,56.40299],[74.7752,56.4034],[74.77588,56.40389],[74.77638,56.40444],[74.77667,56.40504],[74.77674,56.40565],[74.7766,56.40626],[74.77625,56.40685],[74.77569,56.40738],[74.77496,56.40785],[74.77408,56.40823],[74.77308,56.4085],[74.772,56.40866],[74.7557,56.41018],[74.75459,56.41022],[74.75348,56.41014],[74.75242,56.40994],[74.75146,56.40964],[74.75062,56.40923],[74.74993,56.40874],[74.74944,56.40819],[74.74915,56.40759],[74.74907,56.40698],[74.74921,56.40637],[74.74957,56.40578],[74.75013,56.40525],[74.75086,56.40478],[74.75174,56.4044],[74.75274,56.40413],[74.75382,56.40397],[74.77012,56.40245]]]},"properties":{"id":"pit-59","name":"Нижнетанатовская яма","kind":"зимовальная яма","water":"Иртыш","active_from":"11-15","active_to":"04-20","description":"выше по течению д. Танатово (Большереченский район). Верхняя и нижняя границы по приказу; полоса ±350 м вокруг прямой между ними — ориентир, не точная граница.","source":"Приказ Минсельхоза № 646, Приложение № 1, Омская область","provenance":"official","approx":true,"no":59,"district":"Большереченский район","landmark":"выше по течению д. Танатово","upper":[74.75475833333333,56.40707222222222],"lower":[74.77105833333333,56.40555833333333]}},{"type":"Feature","geometry":{"type":"Polygon","coordinates":[[[74.78953,56.38022],[74.78856,56.37992],[74.78772,56.37952],[74.78703,56.37903],[74.78653,56.37848],[74.78623,56.37789],[74.78614,56.37727],[74.78628,56.37666],[74.78662,56.37608],[74.78717,56.37554],[74.7879,56.37507],[74.78877,56.37469],[74.78977,56.37441],[74.79084,56.37424],[74.79195,56.3742],[74.79306,56.37427],[74.79412,56.37446],[74.80239,56.37648],[74.80337,56.37679],[74.80421,56.37719],[74.8049,56.37767],[74.8054,56.37822],[74.8057,56.37882],[74.80579,56.37943],[74.80565,56.38005],[74.80531,56.38063],[74.80476,56.38117],[74.80403,56.38164],[74.80316,56.38202],[74.80216,56.3823],[74.80109,56.38246],[74.79998,56.38251],[74.79887,56.38244],[74.79781,56.38224],[74.78953,56.38022]]]},"properties":{"id":"pit-60","name":"Танатовская яма","kind":"зимовальная яма","water":"Иртыш","active_from":"11-15","active_to":"04-20","description":"возле д. Танатово (Большереченский район). Верхняя и нижняя границы по приказу; полоса ±350 м вокруг прямой между ними — ориентир, не точная граница.","source":"Приказ Минсельхоза № 646, Приложение № 1, Омская область","provenance":"official","approx":true,"no":60,"district":"Большереченский район","landmark":"возле д. Танатово","upper":[74.80010277777778,56.37936388888889],"lower":[74.791825,56.37734444444445]}},{"type":"Feature","geometry":{"type":"Polygon","coordinates":[[[74.69418,56.35314],[74.69361,56.35261],[74.69324,56.35203],[74.69308,56.35142],[74.69314,56.3508],[74.69342,56.35021],[74.6939,56.34965],[74.69456,56.34916],[74.69539,56.34874],[74.69635,56.34843],[74.6974,56.34822],[74.6985,56.34814],[74.69961,56.34817],[74.70069,56.34832],[74.7017,56.34859],[74.70259,56.34896],[74.70333,56.34942],[74.71354,56.35711],[74.71411,56.35764],[74.71448,56.35822],[74.71464,56.35883],[74.71458,56.35945],[74.7143,56.36005],[74.71382,56.3606],[74.71315,56.3611],[74.71233,56.36151],[74.71137,56.36183],[74.71032,56.36203],[74.70922,56.36212],[74.7081,56.36209],[74.70702,56.36193],[74.70602,56.36167],[74.70513,56.3613],[74.70438,56.36084],[74.69418,56.35314]]]},"properties":{"id":"pit-61","name":"Красноярская яма","kind":"зимовальная яма","water":"Иртыш","active_from":"11-15","active_to":"04-20","description":"возле с. Красный Яр (Большереченский район). Верхняя и нижняя границы по приказу; полоса ±350 м вокруг прямой между ними — ориентир, не точная граница.","source":"Приказ Минсельхоза № 646, Приложение № 1, Омская область","provenance":"official","approx":true,"no":61,"district":"Большереченский район","landmark":"возле с. Красный Яр","upper":[74.70896111111111,56.358975],"lower":[74.69875555555556,56.351280555555554]}},{"type":"Feature","geometry":{"type":"Polygon","coordinates":[[[74.78857,56.31833],[74.78966,56.31819],[74.79077,56.31817],[74.79187,56.31826],[74.79291,56.31848],[74.79386,56.3188],[74.79467,56.31922],[74.79533,56.31972],[74.79579,56.32028],[74.79605,56.32088],[74.79609,56.3215],[74.79591,56.32211],[74.79552,56.32269],[74.79494,56.32321],[74.79418,56.32367],[74.79328,56.32403],[74.79227,56.32428],[74.78418,56.32583],[74.7831,56.32597],[74.78198,56.32599],[74.78088,56.3259],[74.77984,56.32568],[74.77889,56.32536],[74.77808,56.32494],[74.77743,56.32444],[74.77696,56.32388],[74.77671,56.32328],[74.77666,56.32266],[74.77684,56.32205],[74.77723,56.32147],[74.77781,56.32095],[74.77857,56.32049],[74.77947,56.32013],[74.78048,56.31988],[74.78857,56.31833]]]},"properties":{"id":"pit-62","name":"Прокопская яма","kind":"зимовальная яма","water":"Иртыш","active_from":"11-15","active_to":"04-20","description":"ниже по течению о. Красноярский (Большереченский район). Верхняя и нижняя границы по приказу; полоса ±350 м вокруг прямой между ними — ориентир, не точная граница.","source":"Приказ Минсельхоза № 646, Приложение № 1, Омская область","provenance":"official","approx":true,"no":62,"district":"Большереченский район","landmark":"ниже по течению о. Красноярский","upper":[74.78233055555556,56.32285277777778],"lower":[74.79042222222222,56.321308333333334]}},{"type":"Feature","geometry":{"type":"Polygon","coordinates":[[[74.71539,56.25851],[74.71438,56.25826],[74.71347,56.25791],[74.7127,56.25746],[74.71211,56.25694],[74.71171,56.25636],[74.71153,56.25575],[74.71156,56.25514],[74.7118,56.25454],[74.71225,56.25397],[74.71289,56.25347],[74.7137,56.25304],[74.71464,56.25271],[74.71568,56.25249],[74.71677,56.25239],[74.71788,56.2524],[74.71896,56.25254],[74.72647,56.25393],[74.72749,56.25418],[74.7284,56.25453],[74.72916,56.25498],[74.72975,56.2555],[74.73015,56.25608],[74.73034,56.25669],[74.73031,56.2573],[74.73007,56.25791],[74.72961,56.25847],[74.72897,56.25897],[74.72817,56.2594],[74.72723,56.25973],[74.72619,56.25995],[74.7251,56.26005],[74.72399,56.26004],[74.7229,56.2599],[74.71539,56.25851]]]},"properties":{"id":"pit-63","name":"Верхнесеткуловская яма","kind":"зимовальная яма","water":"Иртыш","active_from":"11-15","active_to":"04-20","description":"выше по течению с. Такмык (Большереченский район). Верхняя и нижняя границы по приказу; полоса ±350 м вокруг прямой между ними — ориентир, не точная граница.","source":"Приказ Минсельхоза № 646, Приложение № 1, Омская область","provenance":"official","approx":true,"no":63,"district":"Большереченский район","landmark":"выше по течению с. Такмык","upper":[74.72468888888889,56.25691388888889],"lower":[74.71717777777778,56.25552777777778]}},{"type":"Feature","geometry":{"type":"Polygon","coordinates":[[[74.71539,56.25851],[74.71438,56.25826],[74.71347,56.25791],[74.7127,56.25746],[74.71211,56.25694],[74.71171,56.25636],[74.71153,56.25575],[74.71156,56.25514],[74.7118,56.25454],[74.71225,56.25397],[74.71289,56.25347],[74.7137,56.25304],[74.71464,56.25271],[74.71568,56.25249],[74.71677,56.25239],[74.71788,56.2524],[74.71896,56.25254],[74.72647,56.25393],[74.72749,56.25418],[74.7284,56.25453],[74.72916,56.25498],[74.72975,56.2555],[74.73015,56.25608],[74.73034,56.25669],[74.73031,56.2573],[74.73007,56.25791],[74.72961,56.25847],[74.72897,56.25897],[74.72817,56.2594],[74.72723,56.25973],[74.72619,56.25995],[74.7251,56.26005],[74.72399,56.26004],[74.7229,56.2599],[74.71539,56.25851]]]},"properties":{"id":"pit-64","name":"Артынская яма","kind":"зимовальная яма","water":"Иртыш","active_from":"11-15","active_to":"04-20","description":"выше по течению с. Такмык (Большереченский район). Верхняя и нижняя границы по приказу; полоса ±350 м вокруг прямой между ними — ориентир, не точная граница. В приказе координаты совпадают с соседней ямой (вероятно, опечатка первоисточника).","source":"Приказ Минсельхоза № 646, Приложение № 1, Омская область","provenance":"official","approx":true,"no":64,"district":"Большереченский район","landmark":"выше по течению с. Такмык","upper":[74.72468888888889,56.25691388888889],"lower":[74.71717777777778,56.25552777777778],"duplicate_coords":true}},{"type":"Feature","geometry":{"type":"Polygon","coordinates":[[[74.32664,55.72924],[74.32558,55.72939],[74.32449,55.72942],[74.3234,55.72934],[74.32237,55.72913],[74.32143,55.72882],[74.32061,55.7284],[74.31996,55.72791],[74.31949,55.72735],[74.31922,55.72675],[74.31916,55.72614],[74.31932,55.72553],[74.31968,55.72494],[74.32024,55.72441],[74.32097,55.72396],[74.32185,55.72359],[74.32284,55.72332],[74.33888,55.72005],[74.33994,55.7199],[74.34103,55.71987],[74.34212,55.71995],[74.34315,55.72016],[74.34409,55.72048],[74.34491,55.72089],[74.34556,55.72138],[74.34604,55.72194],[74.34631,55.72254],[74.34636,55.72315],[74.34621,55.72376],[74.34584,55.72435],[74.34528,55.72488],[74.34455,55.72534],[74.34367,55.7257],[74.34268,55.72597],[74.32664,55.72924]]]},"properties":{"id":"pit-65","name":"Серебрянская яма","kind":"зимовальная яма","water":"Иртыш","active_from":"11-15","active_to":"04-20","description":"возле с. Серебряное (Горьковский район). Верхняя и нижняя границы по приказу; полоса ±350 м вокруг прямой между ними — ориентир, не точная граница.","source":"Приказ Минсельхоза № 646, Приложение № 1, Омская область","provenance":"official","approx":true,"no":65,"district":"Горьковский район","landmark":"возле с. Серебряное","upper":[74.34078055555555,55.72301111111111],"lower":[74.32474166666667,55.726280555555554]}},{"type":"Feature","geometry":{"type":"Polygon","coordinates":[[[73.90415,55.69587],[73.90342,55.6954],[73.90288,55.69487],[73.90252,55.69428],[73.90238,55.69367],[73.90245,55.69306],[73.90274,55.69246],[73.90322,55.69191],[73.90389,55.69142],[73.90471,55.69101],[73.90566,55.6907],[73.9067,55.6905],[73.90778,55.69042],[73.90887,55.69046],[73.90993,55.69062],[73.91091,55.6909],[73.91178,55.69127],[73.92578,55.69866],[73.9265,55.69912],[73.92705,55.69966],[73.9274,55.70024],[73.92754,55.70086],[73.92747,55.70147],[73.92719,55.70207],[73.9267,55.70262],[73.92604,55.70311],[73.92521,55.70352],[73.92426,55.70383],[73.92323,55.70402],[73.92214,55.7041],[73.92105,55.70406],[73.91999,55.7039],[73.91901,55.70363],[73.91814,55.70326],[73.90415,55.69587]]]},"properties":{"id":"pit-66","name":"Черемховская яма","kind":"зимовальная яма","water":"Иртыш","active_from":"11-15","active_to":"04-20","description":"выше по течению от д. Богданово (Горьковский район). Верхняя и нижняя границы по приказу; полоса ±350 м вокруг прямой между ними — ориентир, не точная граница.","source":"Приказ Минсельхоза № 646, Приложение № 1, Омская область","provenance":"official","approx":true,"no":66,"district":"Горьковский район","landmark":"выше по течению от д. Богданово","upper":[73.92195833333334,55.70095833333334],"lower":[73.9079638888889,55.69356944444444]}},{"type":"Feature","geometry":{"type":"Polygon","coordinates":[[[73.86201,55.6537],[73.86127,55.65324],[73.8607,55.65271],[73.86033,55.65213],[73.86017,55.65152],[73.86022,55.65091],[73.86048,55.65031],[73.86095,55.64975],[73.8616,55.64925],[73.86241,55.64884],[73.86334,55.64852],[73.86437,55.64831],[73.86545,55.64822],[73.86655,55.64825],[73.86761,55.64839],[73.8686,55.64866],[73.86948,55.64902],[73.88567,55.65726],[73.88641,55.65771],[73.88697,55.65824],[73.88734,55.65882],[73.88751,55.65943],[73.88746,55.66005],[73.88719,55.66065],[73.88673,55.6612],[73.88608,55.6617],[73.88527,55.66212],[73.88433,55.66244],[73.8833,55.66265],[73.88222,55.66274],[73.88113,55.66271],[73.88007,55.66256],[73.87908,55.6623],[73.8782,55.66193],[73.86201,55.6537]]]},"properties":{"id":"pit-67","name":"Сосновская яма","kind":"зимовальная яма","water":"Иртыш","active_from":"11-15","active_to":"04-20","description":"у д. Сосновка (Горьковский район). Верхняя и нижняя границы по приказу; полоса ±350 м вокруг прямой между ними — ориентир, не точная граница.","source":"Приказ Минсельхоза № 646, Приложение № 1, Омская область","provenance":"official","approx":true,"no":67,"district":"Горьковский район","landmark":"у д. Сосновка","upper":[73.88193333333332,55.659594444444444],"lower":[73.86574166666666,55.65136111111111]}},{"type":"Feature","geometry":{"type":"Polygon","coordinates":[[[73.80023,55.64124],[73.79921,55.64102],[73.79828,55.64069],[73.7975,55.64026],[73.79687,55.63976],[73.79643,55.63919],[73.79619,55.63859],[73.79617,55.63797],[73.79636,55.63736],[73.79676,55.63679],[73.79735,55.63627],[73.7981,55.63582],[73.799,55.63547],[73.8,55.63522],[73.80107,55.63509],[73.80216,55.63508],[73.80324,55.63518],[73.82687,55.63892],[73.82789,55.63914],[73.82881,55.63947],[73.8296,55.6399],[73.83022,55.64041],[73.83066,55.64097],[73.8309,55.64157],[73.83092,55.64219],[73.83073,55.6428],[73.83034,55.64337],[73.82975,55.64389],[73.82899,55.64434],[73.8281,55.64469],[73.8271,55.64494],[73.82603,55.64508],[73.82494,55.64509],[73.82386,55.64498],[73.80023,55.64124]]]},"properties":{"id":"pit-68","name":"Крутихинская яма","kind":"зимовальная яма","water":"Иртыш","active_from":"11-15","active_to":"04-20","description":"у о. Крутихинский (Горьковский район). Верхняя и нижняя границы по приказу; полоса ±350 м вокруг прямой между ними — ориентир, не точная граница.","source":"Приказ Минсельхоза № 646, Приложение № 1, Омская область","provenance":"official","approx":true,"no":68,"district":"Горьковский район","landmark":"у о. Крутихинский","upper":[73.82536388888889,55.64195],"lower":[73.80173055555555,55.63821388888889]}},{"type":"Feature","geometry":{"type":"Polygon","coordinates":[[[73.52252,55.57234],[73.52144,55.57225],[73.52042,55.57203],[73.51948,55.57171],[73.51868,55.5713],[73.51803,55.5708],[73.51757,55.57024],[73.51732,55.56964],[73.51727,55.56902],[73.51744,55.56841],[73.51781,55.56783],[73.51838,55.56731],[73.51912,55.56685],[73.52,55.56649],[73.52099,55.56623],[73.52205,55.56608],[73.52314,55.56605],[73.53252,55.56635],[73.5336,55.56644],[73.53462,55.56665],[73.53556,55.56698],[73.53636,55.56739],[73.537,55.56789],[73.53746,55.56845],[73.53772,55.56905],[73.53777,55.56967],[73.5376,55.57028],[73.53723,55.57086],[73.53666,55.57138],[73.53592,55.57184],[73.53504,55.5722],[73.53405,55.57246],[73.53299,55.57261],[73.5319,55.57263],[73.52252,55.57234]]]},"properties":{"id":"pit-69","name":"Нижнерозовская яма","kind":"зимовальная яма","water":"Иртыш","active_from":"11-15","active_to":"04-20","description":"у о. Розовский (Горьковский район). Верхняя и нижняя границы по приказу; полоса ±350 м вокруг прямой между ними — ориентир, не точная граница.","source":"Приказ Минсельхоза № 646, Приложение № 1, Омская область","provenance":"official","approx":true,"no":69,"district":"Горьковский район","landmark":"у о. Розовский","upper":[73.53221111111111,55.56949166666667],"lower":[73.52282777777778,55.56919722222223]}},{"type":"Feature","geometry":{"type":"Polygon","coordinates":[[[73.46129,55.53751],[73.46086,55.53694],[73.46064,55.53634],[73.46062,55.53572],[73.46082,55.53511],[73.46122,55.53454],[73.46182,55.53402],[73.46258,55.53358],[73.46348,55.53323],[73.46448,55.53299],[73.46554,55.53286],[73.46663,55.53285],[73.46771,55.53296],[73.46872,55.53319],[73.46963,55.53353],[73.47042,55.53396],[73.47103,55.53447],[73.47586,55.53942],[73.47629,55.53998],[73.47652,55.54059],[73.47653,55.5412],[73.47634,55.54181],[73.47593,55.54238],[73.47534,55.5429],[73.47458,55.54334],[73.47368,55.54369],[73.47268,55.54394],[73.47161,55.54406],[73.47052,55.54407],[73.46945,55.54396],[73.46844,55.54373],[73.46752,55.5434],[73.46674,55.54297],[73.46612,55.54246],[73.46129,55.53751]]]},"properties":{"id":"pit-70","name":"Каргановская яма","kind":"зимовальная яма","water":"Иртыш","active_from":"11-15","active_to":"04-20","description":"у о. Каргановский (Горьковский район). Верхняя и нижняя границы по приказу; полоса ±350 м вокруг прямой между ними — ориентир, не точная граница.","source":"Приказ Минсельхоза № 646, Приложение № 1, Омская область","provenance":"official","approx":true,"no":70,"district":"Горьковский район","landmark":"у о. Каргановский","upper":[73.47099166666666,55.54093611111111],"lower":[73.46616388888889,55.53598611111111]}},{"type":"Feature","geometry":{"type":"Polygon","coordinates":[[[73.37788,55.47847],[73.37683,55.4783],[73.37586,55.47802],[73.37501,55.47764],[73.3743,55.47717],[73.37377,55.47663],[73.37343,55.47604],[73.37331,55.47543],[73.3734,55.47481],[73.37369,55.47422],[73.37419,55.47367],[73.37486,55.47319],[73.37569,55.47279],[73.37664,55.47249],[73.37768,55.4723],[73.37876,55.47223],[73.37984,55.47227],[73.41313,55.47566],[73.41418,55.47583],[73.41515,55.47611],[73.41601,55.47649],[73.41671,55.47696],[73.41724,55.4775],[73.41758,55.47809],[73.41771,55.4787],[73.41762,55.47932],[73.41732,55.47991],[73.41683,55.48046],[73.41615,55.48094],[73.41533,55.48134],[73.41437,55.48165],[73.41334,55.48184],[73.41226,55.48191],[73.41117,55.48186],[73.37788,55.47847]]]},"properties":{"id":"pit-71","name":"Нижнебитиинская яма","kind":"зимовальная яма","water":"Иртыш","active_from":"11-15","active_to":"04-20","description":"между поселком Нижняя Бития и селом Лежанка (Горьковский район). Верхняя и нижняя границы по приказу; полоса ±350 м вокруг прямой между ними — ориентир, не точная граница.","source":"Приказ Минсельхоза № 646, Приложение № 1, Омская область","provenance":"official","approx":true,"no":71,"district":"Горьковский район","landmark":"между поселком Нижняя Бития и селом Лежанка","upper":[73.41215277777778,55.47876111111111],"lower":[73.3788611111111,55.47537222222223]}},{"type":"Feature","geometry":{"type":"Polygon","coordinates":[[[73.15435,55.35073],[73.15326,55.3507],[73.15221,55.35054],[73.15124,55.35027],[73.15037,55.3499],[73.14965,55.34944],[73.14909,55.34891],[73.14873,55.34833],[73.14858,55.34772],[73.14864,55.3471],[73.14891,55.34651],[73.14939,55.34595],[73.15004,55.34546],[73.15085,55.34505],[73.15178,55.34473],[73.15281,55.34453],[73.15388,55.34444],[73.16481,55.34418],[73.1659,55.34421],[73.16695,55.34437],[73.16793,55.34463],[73.16879,55.345],[73.16952,55.34546],[73.17007,55.346],[73.17043,55.34658],[73.17058,55.34719],[73.17052,55.3478],[73.17025,55.3484],[73.16978,55.34896],[73.16913,55.34945],[73.16832,55.34986],[73.16738,55.35018],[73.16636,55.35038],[73.16529,55.35047],[73.15435,55.35073]]]},"properties":{"id":"pit-72","name":"Нижнекрасноярская яма","kind":"зимовальная яма","water":"Иртыш","active_from":"11-15","active_to":"04-20","description":"села Красноярка (поселок Белкино) (Омский район). Верхняя и нижняя границы по приказу; полоса ±350 м вокруг прямой между ними — ориентир, не точная граница.","source":"Приказ Минсельхоза № 646, Приложение № 1, Омская область","provenance":"official","approx":true,"no":72,"district":"Омский район","landmark":"села Красноярка (поселок Белкино)","upper":[73.16505000000001,55.347322222222225],"lower":[73.1541138888889,55.34758611111111]}},{"type":"Feature","geometry":{"type":"Polygon","coordinates":[[[73.54088,54.80944],[73.54167,54.80903],[73.54259,54.80871],[73.5436,54.8085],[73.54465,54.80841],[73.54572,54.80844],[73.54676,54.80858],[73.54773,54.80885],[73.54859,54.80921],[73.54932,54.80967],[73.54987,54.8102],[73.55023,54.81078],[73.55039,54.81139],[73.55034,54.812],[73.55009,54.8126],[73.54963,54.81316],[73.549,54.81366],[73.53334,54.82367],[73.53255,54.82408],[73.53163,54.8244],[73.53063,54.82461],[73.52957,54.8247],[73.5285,54.82468],[73.52746,54.82453],[73.52649,54.82427],[73.52563,54.8239],[73.5249,54.82344],[73.52435,54.82291],[73.52399,54.82233],[73.52383,54.82172],[73.52388,54.82111],[73.52413,54.82051],[73.52459,54.81995],[73.52523,54.81945],[73.54088,54.80944]]]},"properties":{"id":"pit-73","name":"Падинская яма","kind":"зимовальная яма","water":"Иртыш","active_from":"11-15","active_to":"04-20","description":"у острова Падинский (Омский район). Верхняя и нижняя границы по приказу; полоса ±350 м вокруг прямой между ними — ориентир, не точная граница.","source":"Приказ Минсельхоза № 646, Приложение № 1, Омская область","provenance":"official","approx":true,"no":73,"district":"Омский район","landmark":"у острова Падинский","upper":[73.52928333333334,54.821561111111116],"lower":[73.5449388888889,54.81155]}},{"type":"Feature","geometry":{"type":"Polygon","coordinates":[[[74.16632,54.54976],[74.16738,54.54979],[74.16842,54.54995],[74.16938,54.55021],[74.17023,54.55058],[74.17094,54.55104],[74.17148,54.55157],[74.17184,54.55215],[74.17199,54.55276],[74.17194,54.55338],[74.17167,54.55398],[74.17121,54.55453],[74.17058,54.55503],[74.16979,54.55544],[74.16887,54.55576],[74.16787,54.55596],[74.16682,54.55605],[74.13501,54.55689],[74.13394,54.55685],[74.13291,54.5567],[74.13195,54.55643],[74.1311,54.55607],[74.13039,54.55561],[74.12985,54.55508],[74.12949,54.55449],[74.12934,54.55388],[74.1294,54.55327],[74.12966,54.55267],[74.13012,54.55211],[74.13075,54.55162],[74.13155,54.55121],[74.13246,54.55089],[74.13346,54.55069],[74.13452,54.5506],[74.16632,54.54976]]]},"properties":{"id":"pit-74","name":"Покровская яма","kind":"зимовальная яма","water":"Иртыш","active_from":"11-15","active_to":"04-20","description":"у с. Покрово-Иртышский (Омский район). Верхняя и нижняя границы по приказу; полоса ±350 м вокруг прямой между ними — ориентир, не точная граница.","source":"Приказ Минсельхоза № 646, Приложение № 1, Омская область","provenance":"official","approx":true,"no":74,"district":"Омский район","landmark":"у с. Покрово-Иртышский","upper":[74.13476111111112,54.55374166666667],"lower":[74.16656944444445,54.552905555555554]}},{"type":"Feature","geometry":{"type":"Polygon","coordinates":[[[75.01735,53.8467],[75.01696,53.84612],[75.01677,53.84552],[75.01678,53.8449],[75.01699,53.8443],[75.0174,53.84373],[75.018,53.84322],[75.01874,53.84279],[75.01962,53.84245],[75.02059,53.84222],[75.02162,53.84211],[75.02266,53.84212],[75.02369,53.84224],[75.02465,53.84249],[75.02551,53.84283],[75.02624,53.84328],[75.02681,53.84379],[75.0482,53.86805],[75.04859,53.86862],[75.04878,53.86923],[75.04877,53.86985],[75.04855,53.87045],[75.04814,53.87102],[75.04755,53.87153],[75.0468,53.87196],[75.04593,53.8723],[75.04496,53.87252],[75.04393,53.87264],[75.04288,53.87263],[75.04186,53.8725],[75.04089,53.87226],[75.04003,53.87191],[75.0393,53.87147],[75.03873,53.87096],[75.01735,53.8467]]]},"properties":{"id":"pit-75","name":"Крутоярская яма","kind":"зимовальная яма","water":"Иртыш","active_from":"11-15","active_to":"04-20","description":"у аула Караман Нововаршавского района (Черлакский район). Верхняя и нижняя границы по приказу; полоса ±350 м вокруг прямой между ними — ориентир, не точная граница.","source":"Приказ Минсельхоза № 646, Приложение № 1, Омская область","provenance":"official","approx":true,"no":75,"district":"Черлакский район","landmark":"у аула Караман Нововаршавского района","upper":[75.0434638888889,53.869502777777775],"lower":[75.02208055555556,53.84524444444445]}},{"type":"Feature","geometry":{"type":"Polygon","coordinates":[[[75.02735,53.96443],[75.02807,53.96399],[75.02893,53.96364],[75.02989,53.96339],[75.03092,53.96325],[75.03197,53.96324],[75.033,53.96335],[75.03398,53.96357],[75.03486,53.9639],[75.03562,53.96433],[75.03622,53.96483],[75.03664,53.9654],[75.03687,53.966],[75.03689,53.96662],[75.03671,53.96722],[75.03633,53.9678],[75.03577,53.96832],[75.00876,53.98856],[75.00803,53.98901],[75.00717,53.98936],[75.00621,53.98961],[75.00519,53.98974],[75.00414,53.98976],[75.0031,53.98965],[75.00213,53.98943],[75.00124,53.9891],[75.00048,53.98867],[74.99988,53.98816],[74.99946,53.9876],[74.99923,53.987],[74.99921,53.98638],[74.99939,53.98577],[74.99977,53.9852],[75.00034,53.98468],[75.02735,53.96443]]]},"properties":{"id":"pit-76","name":"Малоатмасская яма","kind":"зимовальная яма","water":"Иртыш","active_from":"11-15","active_to":"04-20","description":"у с. Татарка (Черлакский район). Верхняя и нижняя границы по приказу; полоса ±350 м вокруг прямой между ними — ориентир, не точная граница.","source":"Приказ Минсельхоза № 646, Приложение № 1, Омская область","provenance":"official","approx":true,"no":76,"district":"Черлакский район","landmark":"у с. Татарка","upper":[75.00454722222223,53.98661944444444],"lower":[75.03155833333334,53.96637777777778]}},{"type":"Feature","geometry":{"type":"Polygon","coordinates":[[[74.47189,54.39459],[74.47287,54.39435],[74.47391,54.39423],[74.47497,54.39422],[74.47601,54.39433],[74.47699,54.39457],[74.47788,54.3949],[74.47863,54.39533],[74.47923,54.39584],[74.47965,54.39641],[74.47986,54.39702],[74.47987,54.39763],[74.47968,54.39824],[74.47928,54.39881],[74.4787,54.39933],[74.47796,54.39977],[74.47708,54.40012],[74.43563,54.41331],[74.43466,54.41355],[74.43362,54.41368],[74.43256,54.41368],[74.43152,54.41357],[74.43053,54.41334],[74.42965,54.413],[74.42889,54.41257],[74.42829,54.41206],[74.42788,54.41149],[74.42766,54.41088],[74.42765,54.41027],[74.42785,54.40966],[74.42825,54.40909],[74.42883,54.40857],[74.42957,54.40813],[74.43045,54.40778],[74.47189,54.39459]]]},"properties":{"id":"pit-77","name":"Бердниковская яма","kind":"зимовальная яма","water":"Иртыш","active_from":"11-15","active_to":"04-20","description":"у д. Бердниково (Черлакский район). Верхняя и нижняя границы по приказу; полоса ±350 м вокруг прямой между ними — ориентир, не точная граница.","source":"Приказ Минсельхоза № 646, Приложение № 1, Омская область","provenance":"official","approx":true,"no":77,"district":"Черлакский район","landmark":"у д. Бердниково","upper":[74.43303888888889,54.41054722222222],"lower":[74.47448888888889,54.397355555555556]}},{"type":"Feature","geometry":{"type":"Polygon","coordinates":[[[74.36752,54.4759],[74.36807,54.47537],[74.36879,54.47492],[74.36965,54.47456],[74.37061,54.4743],[74.37164,54.47415],[74.3727,54.47412],[74.37375,54.47422],[74.37475,54.47443],[74.37566,54.47475],[74.37644,54.47517],[74.37706,54.47567],[74.37751,54.47623],[74.37776,54.47683],[74.37781,54.47744],[74.37764,54.47805],[74.37728,54.47863],[74.36234,54.49664],[74.36178,54.49717],[74.36107,54.49762],[74.36021,54.49799],[74.35924,54.49825],[74.35821,54.49839],[74.35715,54.49842],[74.3561,54.49832],[74.3551,54.49811],[74.35419,54.49779],[74.35341,54.49737],[74.35279,54.49687],[74.35234,54.49631],[74.35209,54.49571],[74.35204,54.4951],[74.35221,54.49449],[74.35257,54.49391],[74.36752,54.4759]]]},"properties":{"id":"pit-78","name":"Романтеевская яма","kind":"зимовальная яма","water":"Иртыш","active_from":"11-15","active_to":"04-20","description":"у с. Иртыш (Черлакский район). Верхняя и нижняя границы по приказу; полоса ±350 м вокруг прямой между ними — ориентир, не точная граница.","source":"Приказ Минсельхоза № 646, Приложение № 1, Омская область","provenance":"official","approx":true,"no":78,"district":"Черлакский район","landmark":"у с. Иртыш","upper":[74.35745555555555,54.495275],"lower":[74.37239722222222,54.477266666666665]}},{"type":"Feature","geometry":{"type":"Polygon","coordinates":[[[74.33982,54.50134],[74.34066,54.50096],[74.34161,54.50069],[74.34264,54.50053],[74.3437,54.50048],[74.34475,54.50056],[74.34576,54.50076],[74.34668,54.50106],[74.34749,54.50147],[74.34814,54.50196],[74.34861,54.50251],[74.34889,54.50311],[74.34896,54.50372],[74.34883,54.50433],[74.34849,54.50492],[74.34796,54.50545],[74.34727,54.50592],[74.29077,54.53686],[74.28992,54.53723],[74.28897,54.53751],[74.28795,54.53767],[74.28688,54.53771],[74.28583,54.53763],[74.28482,54.53744],[74.2839,54.53713],[74.2831,54.53673],[74.28245,54.53624],[74.28197,54.53568],[74.28169,54.53509],[74.28162,54.53447],[74.28176,54.53386],[74.2821,54.53328],[74.28262,54.53274],[74.28332,54.53228],[74.33982,54.50134]]]},"properties":{"id":"pit-79","name":"Верхнеильинская яма","kind":"зимовальная яма","water":"Иртыш","active_from":"11-15","active_to":"04-20","description":"между д. Верхнеильинка и с. Иртыш (Черлакский район). Верхняя и нижняя границы по приказу; полоса ±350 м вокруг прямой между ними — ориентир, не точная граница.","source":"Приказ Минсельхоза № 646, Приложение № 1, Омская область","provenance":"official","approx":true,"no":79,"district":"Черлакский район","landmark":"между д. Верхнеильинка и с. Иртыш","upper":[74.28704444444445,54.53456666666666],"lower":[74.34354444444443,54.50363055555555]}}]}